G90;
M5;
G21;
M5;
G1 F3000.0 X60.056674 Y30.706320;
M3 S255;
G1 F750.0 X60.022756 Y29.203813;
G1 X59.922016 Y27.719543;
G1 X59.755980 Y26.255097;
G1 X59.526171 Y24.812066;
G1 X59.234113 Y23.392038;
G1 X58.881329 Y21.996602;
G1 X58.469344 Y20.627348;
G1 X57.999681 Y19.285865;
G1 X57.473864 Y17.973742;
G1 X56.893418 Y16.692568;
G1 X56.259866 Y15.443932;
G1 X55.574731 Y14.229424;
G1 X54.839538 Y13.050633;
G1 X54.055811 Y11.909147;
G1 X53.225073 Y10.806556;
G1 X52.348849 Y9.744450;
G1 X51.428662 Y8.724416;
G1 X50.466035 Y7.748045;
G1 X49.462494 Y6.816926;
G1 X48.419561 Y5.932647;
G1 X47.338762 Y5.096798;
G1 X46.221618 Y4.310968;
G1 X45.069655 Y3.576747;
G1 X43.884396 Y2.895723;
G1 X42.667365 Y2.269485;
G1 X41.420087 Y1.699623;
G1 X40.144084 Y1.187726;
G1 X38.840880 Y0.735383;
G1 X37.512001 Y0.344183;
G1 X36.158968 Y0.015715;
G1 X34.783307 Y-0.248431;
G1 X33.386541 Y-0.446666;
G1 X31.970194 Y-0.577402;
G1 X30.535790 Y-0.639049;
G1 X29.994429 Y-0.644030;
G1 X28.553657 Y-0.608658;
G1 X27.130371 Y-0.503603;
G1 X25.726096 Y-0.330452;
G1 X24.342355 Y-0.090796;
G1 X22.980672 Y0.213776;
G1 X21.642571 Y0.581676;
G1 X20.329576 Y1.011314;
G1 X19.043211 Y1.501100;
G1 X17.785000 Y2.049447;
G1 X16.556466 Y2.654764;
G1 X15.359134 Y3.315463;
G1 X14.194527 Y4.029954;
G1 X13.064169 Y4.796649;
G1 X11.969584 Y5.613957;
G1 X10.912296 Y6.480290;
G1 X9.893828 Y7.394059;
G1 X8.915706 Y8.353674;
G1 X7.979451 Y9.357547;
G1 X7.086589 Y10.404088;
G1 X6.238643 Y11.491708;
G1 X5.437137 Y12.618818;
G1 X4.683595 Y13.783829;
G1 X3.979541 Y14.985151;
G1 X3.326498 Y16.221196;
G1 X2.725991 Y17.490374;
G1 X2.179544 Y18.791096;
G1 X1.688679 Y20.121773;
G1 X1.254922 Y21.480816;
G1 X0.879795 Y22.866636;
G1 X0.564823 Y24.277643;
G1 X0.311530 Y25.712248;
G1 X0.121440 Y27.168863;
G1 X-0.003924 Y28.645897;
G1 X-0.063038 Y30.141762;
G1 X-0.067815 Y30.706320;
G1 X-0.033896 Y32.208827;
G1 X0.066843 Y33.693097;
G1 X0.232879 Y35.157543;
G1 X0.462688 Y36.600574;
G1 X0.754746 Y38.020602;
G1 X1.107530 Y39.416038;
G1 X1.519515 Y40.785292;
G1 X1.989178 Y42.126775;
G1 X2.514994 Y43.438898;
G1 X3.095441 Y44.720072;
G1 X3.728993 Y45.968708;
G1 X4.414127 Y47.183216;
G1 X5.149320 Y48.362007;
G1 X5.933047 Y49.503493;
G1 X6.763785 Y50.606084;
G1 X7.640009 Y51.668190;
G1 X8.560197 Y52.688224;
G1 X9.522823 Y53.664595;
G1 X10.526364 Y54.595714;
G1 X11.569297 Y55.479993;
G1 X12.650097 Y56.315842;
G1 X13.767240 Y57.101672;
G1 X14.919203 Y57.835893;
G1 X16.104462 Y58.516917;
G1 X17.321493 Y59.143155;
G1 X18.568771 Y59.713017;
G1 X19.844774 Y60.224914;
G1 X21.147978 Y60.677257;
G1 X22.476857 Y61.068457;
G1 X23.829890 Y61.396925;
G1 X25.205551 Y61.661071;
G1 X26.602317 Y61.859306;
G1 X28.018664 Y61.990042;
G1 X29.453068 Y62.051689;
G1 X29.994429 Y62.056670;
G1 X31.435201 Y62.021298;
G1 X32.858487 Y61.916243;
G1 X34.262762 Y61.743092;
G1 X35.646503 Y61.503436;
G1 X37.008186 Y61.198864;
G1 X38.346287 Y60.830964;
G1 X39.659282 Y60.401326;
G1 X40.945647 Y59.911540;
G1 X42.203858 Y59.363193;
G1 X43.432392 Y58.757876;
G1 X44.629724 Y58.097177;
G1 X45.794331 Y57.382686;
G1 X46.924689 Y56.615991;
G1 X48.019274 Y55.798683;
G1 X49.076562 Y54.932350;
G1 X50.095030 Y54.018581;
G1 X51.073153 Y53.058966;
G1 X52.009407 Y52.055093;
G1 X52.902269 Y51.008552;
G1 X53.750215 Y49.920932;
G1 X54.551721 Y48.793822;
G1 X55.305263 Y47.628811;
G1 X56.009318 Y46.427489;
G1 X56.662360 Y45.191444;
G1 X57.262867 Y43.922266;
G1 X57.809315 Y42.621544;
G1 X58.300180 Y41.290867;
G1 X58.733937 Y39.931824;
G1 X59.109064 Y38.546004;
G1 X59.424036 Y37.134997;
G1 X59.677329 Y35.700392;
G1 X59.867419 Y34.243777;
G1 X59.992784 Y32.766743;
G1 X60.051897 Y31.270878;
G1 X60.056674 Y30.706320;
G1 X60.056674 Y30.706320;
M5;
G1 F3000.0 X47.954783 Y30.631340;
M3 S255;
G1 F750.0 X47.916512 Y29.400542;
G1 X47.803229 Y28.190240;
G1 X47.617228 Y27.002746;
G1 X47.360804 Y25.840369;
G1 X47.036250 Y24.705422;
G1 X46.645861 Y23.600213;
G1 X46.191930 Y22.527055;
G1 X45.676753 Y21.488259;
G1 X45.102624 Y20.486133;
G1 X44.471836 Y19.522991;
G1 X43.786684 Y18.601141;
G1 X43.049462 Y17.722895;
G1 X42.262465 Y16.890564;
G1 X41.427986 Y16.106459;
G1 X40.548319 Y15.372889;
G1 X39.625760 Y14.692167;
G1 X38.662602 Y14.066602;
G1 X37.661139 Y13.498505;
G1 X36.623666 Y12.990187;
G1 X35.552476 Y12.543960;
G1 X34.449865 Y12.162132;
G1 X33.318126 Y11.847017;
G1 X32.159553 Y11.600923;
G1 X30.976442 Y11.426162;
G1 X29.771085 Y11.325044;
G1 X28.760329 Y11.298700;
G1 X27.538328 Y11.337246;
G1 X26.336677 Y11.451345;
G1 X25.157671 Y11.638685;
G1 X24.003602 Y11.896955;
G1 X22.876767 Y12.223846;
G1 X21.779459 Y12.617046;
G1 X20.713972 Y13.074244;
G1 X19.682600 Y13.593130;
G1 X18.687638 Y14.171393;
G1 X17.731379 Y14.806722;
G1 X16.816119 Y15.496806;
G1 X15.944151 Y16.239336;
G1 X15.117769 Y17.031999;
G1 X14.339268 Y17.872486;
G1 X13.610942 Y18.758485;
G1 X12.935085 Y19.687687;
G1 X12.313992 Y20.657779;
G1 X11.749956 Y21.666452;
G1 X11.245272 Y22.711394;
G1 X10.802234 Y23.790295;
G1 X10.423136 Y24.900844;
G1 X10.110273 Y26.040731;
G1 X9.865938 Y27.207644;
G1 X9.692426 Y28.399273;
G1 X9.592031 Y29.613308;
G1 X9.565875 Y30.631340;
G1 X9.604146 Y31.862138;
G1 X9.717429 Y33.072440;
G1 X9.903430 Y34.259934;
G1 X10.159854 Y35.422311;
G1 X10.484408 Y36.557258;
G1 X10.874797 Y37.662467;
G1 X11.328727 Y38.735625;
G1 X11.843904 Y39.774421;
G1 X12.418034 Y40.776547;
G1 X13.048821 Y41.739689;
G1 X13.733973 Y42.661539;
G1 X14.471195 Y43.539785;
G1 X15.258193 Y44.372116;
G1 X16.092672 Y45.156221;
G1 X16.972338 Y45.889791;
G1 X17.894898 Y46.570513;
G1 X18.858056 Y47.196078;
G1 X19.859519 Y47.764175;
G1 X20.896992 Y48.272493;
G1 X21.968181 Y48.718720;
G1 X23.070793 Y49.100548;
G1 X24.202532 Y49.415663;
G1 X25.361104 Y49.661757;
G1 X26.544216 Y49.836518;
G1 X27.749573 Y49.937636;
G1 X28.760329 Y49.963980;
G1 X29.982330 Y49.925434;
G1 X31.183981 Y49.811335;
G1 X32.362987 Y49.623995;
G1 X33.517056 Y49.365725;
G1 X34.643891 Y49.038834;
G1 X35.741199 Y48.645634;
G1 X36.806687 Y48.188436;
G1 X37.838058 Y47.669550;
G1 X38.833021 Y47.091287;
G1 X39.789279 Y46.455958;
G1 X40.704539 Y45.765874;
G1 X41.576507 Y45.023344;
G1 X42.402889 Y44.230681;
G1 X43.181390 Y43.390194;
G1 X43.909716 Y42.504195;
G1 X44.585573 Y41.574993;
G1 X45.206666 Y40.604901;
G1 X45.770702 Y39.596228;
G1 X46.275386 Y38.551286;
G1 X46.718425 Y37.472385;
G1 X47.097522 Y36.361836;
G1 X47.410386 Y35.221949;
G1 X47.654721 Y34.055036;
G1 X47.828232 Y32.863407;
G1 X47.928627 Y31.649372;
G1 X47.954783 Y30.631340;
G1 X47.954783 Y30.631340;
M5;
G1 F3000.0 X36.317386 Y30.331150;
M3 S255;
G1 F750.0 X36.283553 Y29.545649;
G1 X36.184042 Y28.780379;
G1 X36.021837 Y28.038512;
G1 X35.799921 Y27.323223;
G1 X35.521277 Y26.637683;
G1 X35.188889 Y25.985067;
G1 X34.805740 Y25.368548;
G1 X34.374814 Y24.791299;
G1 X33.899093 Y24.256492;
G1 X33.381561 Y23.767302;
G1 X32.825201 Y23.326901;
G1 X32.232997 Y22.938463;
G1 X31.607932 Y22.605161;
G1 X30.952990 Y22.330168;
G1 X30.271152 Y22.116657;
G1 X29.565404 Y21.967801;
G1 X28.838728 Y21.886775;
G1 X28.364426 Y21.871980;
G1 X27.625931 Y21.907967;
G1 X26.906455 Y22.013811;
G1 X26.208983 Y22.186341;
G1 X25.536498 Y22.422382;
G1 X24.891982 Y22.718762;
G1 X24.278420 Y23.072306;
G1 X23.698794 Y23.479843;
G1 X23.156088 Y23.938198;
G1 X22.653285 Y24.444199;
G1 X22.193369 Y24.994672;
G1 X21.779322 Y25.586444;
G1 X21.414129 Y26.216342;
G1 X21.100772 Y26.881193;
G1 X20.842235 Y27.577823;
G1 X20.641501 Y28.303060;
G1 X20.501553 Y29.053729;
G1 X20.425376 Y29.826658;
G1 X20.411466 Y30.331150;
G1 X20.445299 Y31.116651;
G1 X20.544810 Y31.881921;
G1 X20.707015 Y32.623788;
G1 X20.928931 Y33.339077;
G1 X21.207575 Y34.024617;
G1 X21.539963 Y34.677233;
G1 X21.923112 Y35.293752;
G1 X22.354038 Y35.871001;
G1 X22.829759 Y36.405808;
G1 X23.347291 Y36.894998;
G1 X23.903651 Y37.335399;
G1 X24.495855 Y37.723837;
G1 X25.120920 Y38.057139;
G1 X25.775863 Y38.332132;
G1 X26.457700 Y38.545643;
G1 X27.163448 Y38.694499;
G1 X27.890124 Y38.775525;
G1 X28.364426 Y38.790320;
G1 X29.102921 Y38.754333;
G1 X29.822397 Y38.648489;
G1 X30.519869 Y38.475959;
G1 X31.192355 Y38.239918;
G1 X31.836870 Y37.943538;
G1 X32.450433 Y37.589994;
G1 X33.030059 Y37.182457;
G1 X33.572765 Y36.724102;
G1 X34.075567 Y36.218101;
G1 X34.535484 Y35.667628;
G1 X34.949530 Y35.075856;
G1 X35.314723 Y34.445958;
G1 X35.628080 Y33.781107;
G1 X35.886617 Y33.084477;
G1 X36.087351 Y32.359240;
G1 X36.227299 Y31.608571;
G1 X36.303476 Y30.835642;
G1 X36.317386 Y30.331150;
G1 X36.317386 Y30.331150;
M5;