G90;
M5;
G21;
M5;
G1 F3000.0 X29.510206 Y32.178440;
M3 S255;
G1 F750.0 X29.476288 Y30.675933;
G1 X29.375548 Y29.191663;
G1 X29.209512 Y27.727217;
G1 X28.979703 Y26.284186;
G1 X28.687645 Y24.864158;
G1 X28.334861 Y23.468722;
G1 X27.922876 Y22.099468;
G1 X27.453213 Y20.757985;
G1 X26.927396 Y19.445862;
G1 X26.346950 Y18.164688;
G1 X25.713398 Y16.916052;
G1 X25.028263 Y15.701544;
G1 X24.293070 Y14.522753;
G1 X23.509343 Y13.381267;
G1 X22.678605 Y12.278676;
G1 X21.802381 Y11.216570;
G1 X20.882194 Y10.196536;
G1 X19.919567 Y9.220165;
G1 X18.916026 Y8.289046;
G1 X17.873093 Y7.404767;
G1 X16.792293 Y6.568918;
G1 X15.675150 Y5.783088;
G1 X14.523187 Y5.048867;
G1 X13.337928 Y4.367843;
G1 X12.120897 Y3.741605;
G1 X10.873619 Y3.171743;
G1 X9.597616 Y2.659846;
G1 X8.294412 Y2.207503;
G1 X6.965532 Y1.816303;
G1 X5.612500 Y1.487835;
G1 X4.236839 Y1.223689;
G1 X2.840073 Y1.025454;
G1 X1.423726 Y0.894718;
G1 X-0.010678 Y0.833071;
G1 X-0.552039 Y0.828090;
G1 X-1.992812 Y0.863462;
G1 X-3.416097 Y0.968517;
G1 X-4.820373 Y1.141668;
G1 X-6.204114 Y1.381324;
G1 X-7.565796 Y1.685896;
G1 X-8.903897 Y2.053796;
G1 X-10.216892 Y2.483434;
G1 X-11.503257 Y2.973220;
G1 X-12.761468 Y3.521567;
G1 X-13.990002 Y4.126884;
G1 X-15.187334 Y4.787583;
G1 X-16.351941 Y5.502074;
G1 X-17.482299 Y6.268769;
G1 X-18.576884 Y7.086077;
G1 X-19.634172 Y7.952410;
G1 X-20.652640 Y8.866179;
G1 X-21.630763 Y9.825794;
G1 X-22.567017 Y10.829667;
G1 X-23.459879 Y11.876208;
G1 X-24.307825 Y12.963828;
G1 X-25.109331 Y14.090938;
G1 X-25.862873 Y15.255949;
G1 X-26.566927 Y16.457271;
G1 X-27.219970 Y17.693316;
G1 X-27.820477 Y18.962494;
G1 X-28.366925 Y20.263216;
G1 X-28.857789 Y21.593893;
G1 X-29.291547 Y22.952936;
G1 X-29.666673 Y24.338756;
G1 X-29.981645 Y25.749763;
G1 X-30.234938 Y27.184368;
G1 X-30.425029 Y28.640983;
G1 X-30.550393 Y30.118017;
G1 X-30.609506 Y31.613882;
G1 X-30.614283 Y32.178440;
G1 X-30.580365 Y33.680947;
G1 X-30.479626 Y35.165217;
G1 X-30.313589 Y36.629663;
G1 X-30.083780 Y38.072694;
G1 X-29.791722 Y39.492722;
G1 X-29.438938 Y40.888158;
G1 X-29.026953 Y42.257412;
G1 X-28.557291 Y43.598895;
G1 X-28.031474 Y44.911018;
G1 X-27.451028 Y46.192192;
G1 X-26.817475 Y47.440828;
G1 X-26.132341 Y48.655336;
G1 X-25.397148 Y49.834127;
G1 X-24.613421 Y50.975613;
G1 X-23.782683 Y52.078204;
G1 X-22.906459 Y53.140310;
G1 X-21.986272 Y54.160344;
G1 X-21.023645 Y55.136715;
G1 X-20.020104 Y56.067834;
G1 X-18.977171 Y56.952113;
G1 X-17.896372 Y57.787962;
G1 X-16.779228 Y58.573792;
G1 X-15.627265 Y59.308013;
G1 X-14.442006 Y59.989037;
G1 X-13.224976 Y60.615275;
G1 X-11.977697 Y61.185137;
G1 X-10.701694 Y61.697034;
G1 X-9.398491 Y62.149377;
G1 X-8.069611 Y62.540577;
G1 X-6.716578 Y62.869045;
G1 X-5.340917 Y63.133191;
G1 X-3.944152 Y63.331426;
G1 X-2.527805 Y63.462162;
G1 X-1.093401 Y63.523809;
G1 X-0.552039 Y63.528790;
G1 X0.888733 Y63.493418;
G1 X2.312019 Y63.388363;
G1 X3.716294 Y63.215212;
G1 X5.100035 Y62.975556;
G1 X6.461718 Y62.670984;
G1 X7.799819 Y62.303084;
G1 X9.112814 Y61.873446;
G1 X10.399178 Y61.383660;
G1 X11.657390 Y60.835313;
G1 X12.885924 Y60.229996;
G1 X14.083256 Y59.569297;
G1 X15.247863 Y58.854806;
G1 X16.378221 Y58.088111;
G1 X17.472806 Y57.270803;
G1 X18.530094 Y56.404470;
G1 X19.548562 Y55.490701;
G1 X20.526685 Y54.531086;
G1 X21.462939 Y53.527213;
G1 X22.355801 Y52.480672;
G1 X23.203747 Y51.393052;
G1 X24.005253 Y50.265942;
G1 X24.758795 Y49.100931;
G1 X25.462850 Y47.899609;
G1 X26.115892 Y46.663564;
G1 X26.716399 Y45.394386;
G1 X27.262847 Y44.093664;
G1 X27.753712 Y42.762987;
G1 X28.187469 Y41.403944;
G1 X28.562596 Y40.018124;
G1 X28.877568 Y38.607117;
G1 X29.130861 Y37.172512;
G1 X29.320951 Y35.715897;
G1 X29.446316 Y34.238863;
G1 X29.505429 Y32.742998;
G1 X29.510206 Y32.178440;
G1 X29.510206 Y32.178440;
M5;
G1 F3000.0 X17.408315 Y32.103460;
M3 S255;
G1 F750.0 X17.370044 Y30.872662;
G1 X17.256761 Y29.662360;
G1 X17.070760 Y28.474866;
G1 X16.814336 Y27.312489;
G1 X16.489782 Y26.177542;
G1 X16.099393 Y25.072333;
G1 X15.645462 Y23.999175;
G1 X15.130285 Y22.960379;
G1 X14.556156 Y21.958253;
G1 X13.925368 Y20.995111;
G1 X13.240216 Y20.073261;
G1 X12.502994 Y19.195015;
G1 X11.715996 Y18.362684;
G1 X10.881517 Y17.578579;
G1 X10.001851 Y16.845009;
G1 X9.079292 Y16.164287;
G1 X8.116133 Y15.538722;
G1 X7.114670 Y14.970625;
G1 X6.077197 Y14.462307;
G1 X5.006008 Y14.016080;
G1 X3.903397 Y13.634252;
G1 X2.771658 Y13.319137;
G1 X1.613085 Y13.073043;
G1 X0.429973 Y12.898282;
G1 X-0.775384 Y12.797164;
G1 X-1.786139 Y12.770820;
G1 X-3.008140 Y12.809366;
G1 X-4.209791 Y12.923465;
G1 X-5.388798 Y13.110805;
G1 X-6.542866 Y13.369075;
G1 X-7.669701 Y13.695966;
G1 X-8.767009 Y14.089166;
G1 X-9.832497 Y14.546364;
G1 X-10.863868 Y15.065250;
G1 X-11.858831 Y15.643513;
G1 X-12.815089 Y16.278842;
G1 X-13.730349 Y16.968926;
G1 X-14.602318 Y17.711456;
G1 X-15.428699 Y18.504119;
G1 X-16.207200 Y19.344606;
G1 X-16.935526 Y20.230605;
G1 X-17.611383 Y21.159807;
G1 X-18.232476 Y22.129899;
G1 X-18.796512 Y23.138572;
G1 X-19.301196 Y24.183514;
G1 X-19.744235 Y25.262415;
G1 X-20.123332 Y26.372964;
G1 X-20.436196 Y27.512851;
G1 X-20.680531 Y28.679764;
G1 X-20.854042 Y29.871393;
G1 X-20.954437 Y31.085428;
G1 X-20.980593 Y32.103460;
G1 X-20.942322 Y33.334258;
G1 X-20.829039 Y34.544560;
G1 X-20.643039 Y35.732054;
G1 X-20.386614 Y36.894431;
G1 X-20.062060 Y38.029378;
G1 X-19.671671 Y39.134587;
G1 X-19.217741 Y40.207745;
G1 X-18.702564 Y41.246541;
G1 X-18.128435 Y42.248667;
G1 X-17.497647 Y43.211809;
G1 X-16.812495 Y44.133659;
G1 X-16.075273 Y45.011905;
G1 X-15.288275 Y45.844236;
G1 X-14.453796 Y46.628341;
G1 X-13.574130 Y47.361911;
G1 X-12.651571 Y48.042633;
G1 X-11.688412 Y48.668198;
G1 X-10.686950 Y49.236295;
G1 X-9.649476 Y49.744613;
G1 X-8.578287 Y50.190840;
G1 X-7.475676 Y50.572668;
G1 X-6.343937 Y50.887783;
G1 X-5.185364 Y51.133877;
G1 X-4.002252 Y51.308638;
G1 X-2.796895 Y51.409756;
G1 X-1.786139 Y51.436100;
G1 X-0.564138 Y51.397554;
G1 X0.637513 Y51.283455;
G1 X1.816519 Y51.096115;
G1 X2.970587 Y50.837845;
G1 X4.097423 Y50.510954;
G1 X5.194731 Y50.117754;
G1 X6.260218 Y49.660556;
G1 X7.291590 Y49.141670;
G1 X8.286552 Y48.563407;
G1 X9.242811 Y47.928078;
G1 X10.158071 Y47.237994;
G1 X11.030039 Y46.495464;
G1 X11.856421 Y45.702801;
G1 X12.634922 Y44.862314;
G1 X13.363248 Y43.976315;
G1 X14.039105 Y43.047113;
G1 X14.660198 Y42.077021;
G1 X15.224234 Y41.068348;
G1 X15.728918 Y40.023406;
G1 X16.171956 Y38.944505;
G1 X16.551054 Y37.833956;
G1 X16.863918 Y36.694069;
G1 X17.108253 Y35.527156;
G1 X17.281764 Y34.335527;
G1 X17.382159 Y33.121492;
G1 X17.408315 Y32.103460;
G1 X17.408315 Y32.103460;
M5;
G1 F3000.0 X5.770918 Y31.803270;
M3 S255;
G1 F750.0 X5.737084 Y31.017769;
G1 X5.637574 Y30.252499;
G1 X5.475368 Y29.510632;
G1 X5.253452 Y28.795343;
G1 X4.974809 Y28.109803;
G1 X4.642421 Y27.457187;
G1 X4.259272 Y26.840668;
G1 X3.828345 Y26.263419;
G1 X3.352624 Y25.728612;
G1 X2.835092 Y25.239422;
G1 X2.278733 Y24.799021;
G1 X1.686529 Y24.410583;
G1 X1.061464 Y24.077281;
G1 X0.406521 Y23.802288;
G1 X-0.275316 Y23.588777;
G1 X-0.981064 Y23.439921;
G1 X-1.707740 Y23.358895;
G1 X-2.182042 Y23.344100;
G1 X-2.920538 Y23.380087;
G1 X-3.640013 Y23.485931;
G1 X-4.337485 Y23.658461;
G1 X-5.009971 Y23.894502;
G1 X-5.654486 Y24.190882;
G1 X-6.268049 Y24.544426;
G1 X-6.847674 Y24.951963;
G1 X-7.390380 Y25.410318;
G1 X-7.893183 Y25.916319;
G1 X-8.353100 Y26.466792;
G1 X-8.767146 Y27.058564;
G1 X-9.132339 Y27.688462;
G1 X-9.445696 Y28.353313;
G1 X-9.704233 Y29.049943;
G1 X-9.904967 Y29.775180;
G1 X-10.044915 Y30.525849;
G1 X-10.121092 Y31.298778;
G1 X-10.135002 Y31.803270;
G1 X-10.101169 Y32.588771;
G1 X-10.001658 Y33.354041;
G1 X-9.839453 Y34.095908;
G1 X-9.617537 Y34.811197;
G1 X-9.338893 Y35.496737;
G1 X-9.006505 Y36.149353;
G1 X-8.623356 Y36.765872;
G1 X-8.192430 Y37.343121;
G1 X-7.716709 Y37.877928;
G1 X-7.199177 Y38.367118;
G1 X-6.642817 Y38.807519;
G1 X-6.050613 Y39.195957;
G1 X-5.425548 Y39.529259;
G1 X-4.770606 Y39.804252;
G1 X-4.088769 Y40.017763;
G1 X-3.383020 Y40.166619;
G1 X-2.656344 Y40.247645;
G1 X-2.182042 Y40.262440;
G1 X-1.443547 Y40.226453;
G1 X-0.724072 Y40.120609;
G1 X-0.026600 Y39.948079;
G1 X0.645886 Y39.712038;
G1 X1.290402 Y39.415658;
G1 X1.903964 Y39.062114;
G1 X2.483590 Y38.654577;
G1 X3.026296 Y38.196222;
G1 X3.529099 Y37.690221;
G1 X3.989015 Y37.139748;
G1 X4.403062 Y36.547976;
G1 X4.768255 Y35.918078;
G1 X5.081612 Y35.253227;
G1 X5.340149 Y34.556597;
G1 X5.540883 Y33.831360;
G1 X5.680830 Y33.080691;
G1 X5.757008 Y32.307762;
G1 X5.770918 Y31.803270;
G1 X5.770918 Y31.803270;
M5;