G90;
M5;
G21;
M5;
G1 F3000.0 X63.000912 Y109.096657;
M3 S255;
G1 F750.0 X62.962941 Y107.521452;
G1 X62.849123 Y105.950227;
G1 X62.659746 Y104.386950;
G1 X62.395288 Y102.835570;
G1 X62.056418 Y101.300007;
G1 X61.643991 Y99.784140;
G1 X61.159049 Y98.291798;
G1 X60.602818 Y96.826750;
G1 X59.976702 Y95.392699;
G1 X59.282284 Y93.993267;
G1 X58.521316 Y92.631988;
G1 X57.695723 Y91.312302;
G1 X56.807588 Y90.037542;
G1 X55.859157 Y88.810929;
G1 X54.852825 Y87.635561;
G1 X53.791133 Y86.514408;
G1 X52.676764 Y85.450302;
G1 X51.512534 Y84.445930;
G1 X50.301383 Y83.503831;
G1 X49.046370 Y82.626383;
G1 X47.750666 Y81.815804;
G1 X46.417545 Y81.074142;
G1 X45.050374 Y80.403269;
G1 X43.652606 Y79.804881;
G1 X42.227773 Y79.280489;
G1 X40.779475 Y78.831418;
G1 X39.311368 Y78.458802;
G1 X37.827164 Y78.163583;
G1 X36.330610 Y77.946506;
G1 X34.825488 Y77.808120;
G1 X33.315599 Y77.748774;
G1 X32.938667 Y77.746310;
G1 X31.428183 Y77.785908;
G1 X29.921515 Y77.904603;
G1 X28.422469 Y78.102094;
G1 X26.934832 Y78.377883;
G1 X25.462361 Y78.731274;
G1 X24.008777 Y79.161372;
G1 X22.577751 Y79.667092;
G1 X21.172899 Y80.247157;
G1 X19.797769 Y80.900100;
G1 X18.455836 Y81.624273;
G1 X17.150488 Y82.417846;
G1 X15.885024 Y83.278815;
G1 X14.662641 Y84.205004;
G1 X13.486427 Y85.194073;
G1 X12.359352 Y86.243525;
G1 X11.284264 Y87.350708;
G1 X10.263879 Y88.512824;
G1 X9.300774 Y89.726940;
G1 X8.397383 Y90.989986;
G1 X7.555988 Y92.298774;
G1 X6.778713 Y93.649995;
G1 X6.067524 Y95.040238;
G1 X5.424215 Y96.465989;
G1 X4.850413 Y97.923648;
G1 X4.347567 Y99.409532;
G1 X3.916947 Y100.919888;
G1 X3.559641 Y102.450899;
G1 X3.276551 Y103.998699;
G1 X3.068394 Y105.559377;
G1 X2.935693 Y107.128990;
G1 X2.878786 Y108.703575;
G1 X2.876423 Y109.096657;
G1 X2.914394 Y110.671862;
G1 X3.028212 Y112.243087;
G1 X3.217589 Y113.806364;
G1 X3.482047 Y115.357744;
G1 X3.820917 Y116.893307;
G1 X4.233344 Y118.409174;
G1 X4.718286 Y119.901516;
G1 X5.274517 Y121.366563;
G1 X5.900633 Y122.800615;
G1 X6.595051 Y124.200047;
G1 X7.356018 Y125.561326;
G1 X8.181612 Y126.881012;
G1 X9.069746 Y128.155772;
G1 X10.018178 Y129.382385;
G1 X11.024510 Y130.557752;
G1 X12.086202 Y131.678906;
G1 X13.200570 Y132.743012;
G1 X14.364801 Y133.747383;
G1 X15.575952 Y134.689483;
G1 X16.830965 Y135.566930;
G1 X18.126668 Y136.377509;
G1 X19.459789 Y137.119172;
G1 X20.826960 Y137.790045;
G1 X22.224728 Y138.388433;
G1 X23.649561 Y138.912825;
G1 X25.097860 Y139.361896;
G1 X26.565966 Y139.734512;
G1 X28.050170 Y140.029731;
G1 X29.546724 Y140.246808;
G1 X31.051847 Y140.385194;
G1 X32.561735 Y140.444540;
G1 X32.938667 Y140.447004;
G1 X34.449151 Y140.407406;
G1 X35.955819 Y140.288711;
G1 X37.454865 Y140.091220;
G1 X38.942502 Y139.815431;
G1 X40.414973 Y139.462041;
G1 X41.868557 Y139.031942;
G1 X43.299583 Y138.526222;
G1 X44.704435 Y137.946157;
G1 X46.079565 Y137.293214;
G1 X47.421499 Y136.569041;
G1 X48.726846 Y135.775468;
G1 X49.992310 Y134.914500;
G1 X51.214693 Y133.988311;
G1 X52.390908 Y132.999241;
G1 X53.517983 Y131.949789;
G1 X54.593071 Y130.842607;
G1 X55.613456 Y129.680490;
G1 X56.576561 Y128.466375;
G1 X57.479952 Y127.203328;
G1 X58.321347 Y125.894541;
G1 X59.098622 Y124.543319;
G1 X59.809811 Y123.153076;
G1 X60.453120 Y121.727325;
G1 X61.026922 Y120.269666;
G1 X61.529768 Y118.783782;
G1 X61.960388 Y117.273427;
G1 X62.317694 Y115.742415;
G1 X62.600784 Y114.194616;
G1 X62.808941 Y112.633938;
G1 X62.941642 Y111.064324;
G1 X62.998549 Y109.489739;
G1 X63.000912 Y109.096657;
G1 X63.000912 Y109.096657;
M5;
G1 F3000.0 X50.899021 Y109.021675;
M3 S255;
G1 F750.0 X50.863528 Y107.846544;
G1 X50.757182 Y106.675759;
G1 X50.580375 Y105.513650;
G1 X50.333761 Y104.364514;
G1 X50.018252 Y103.232602;
G1 X49.635015 Y102.122099;
G1 X49.185468 Y101.037111;
G1 X48.671273 Y99.981653;
G1 X48.094331 Y98.959626;
G1 X47.456776 Y97.974811;
G1 X46.760966 Y97.030850;
G1 X46.009475 Y96.131233;
G1 X45.205081 Y95.279288;
G1 X44.350759 Y94.478165;
G1 X43.449669 Y93.730827;
G1 X42.505143 Y93.040038;
G1 X41.520674 Y92.408352;
G1 X40.499903 Y91.838106;
G1 X39.446605 Y91.331409;
G1 X38.364675 Y90.890134;
G1 X37.258115 Y90.515913;
G1 X36.131016 Y90.210131;
G1 X34.987548 Y89.973917;
G1 X33.831939 Y89.808147;
G1 X32.668462 Y89.713432;
G1 X31.704567 Y89.689040;
G1 X30.537836 Y89.724788;
G1 X29.375419 Y89.831900;
G1 X28.221616 Y90.009980;
G1 X27.080694 Y90.258370;
G1 X25.956872 Y90.576150;
G1 X24.854306 Y90.962145;
G1 X23.777074 Y91.414929;
G1 X22.729159 Y91.932826;
G1 X21.714437 Y92.513921;
G1 X20.736661 Y93.156065;
G1 X19.799447 Y93.856884;
G1 X18.906260 Y94.613786;
G1 X18.060404 Y95.423970;
G1 X17.265008 Y96.284443;
G1 X16.523011 Y97.192020;
G1 X15.837160 Y98.143346;
G1 X15.209989 Y99.134902;
G1 X14.643819 Y100.163021;
G1 X14.140743 Y101.223902;
G1 X13.702622 Y102.313620;
G1 X13.331076 Y103.428147;
G1 X13.027479 Y104.563359;
G1 X12.792954 Y105.715060;
G1 X12.628368 Y106.878988;
G1 X12.534330 Y108.050841;
G1 X12.510113 Y109.021675;
G1 X12.545606 Y110.196806;
G1 X12.651952 Y111.367591;
G1 X12.828759 Y112.529700;
G1 X13.075373 Y113.678836;
G1 X13.390882 Y114.810748;
G1 X13.774118 Y115.921252;
G1 X14.223666 Y117.006239;
G1 X14.737861 Y118.061698;
G1 X15.314803 Y119.083724;
G1 X15.952358 Y120.068540;
G1 X16.648167 Y121.012501;
G1 X17.399659 Y121.912118;
G1 X18.204053 Y122.764063;
G1 X19.058375 Y123.565186;
G1 X19.959465 Y124.312524;
G1 X20.903991 Y125.003313;
G1 X21.888460 Y125.634999;
G1 X22.909231 Y126.205244;
G1 X23.962529 Y126.711942;
G1 X25.044459 Y127.153217;
G1 X26.151019 Y127.527438;
G1 X27.278117 Y127.833220;
G1 X28.421586 Y128.069434;
G1 X29.577195 Y128.235204;
G1 X30.740672 Y128.329919;
G1 X31.704567 Y128.354311;
G1 X32.871298 Y128.318563;
G1 X34.033715 Y128.211451;
G1 X35.187518 Y128.033371;
G1 X36.328440 Y127.784981;
G1 X37.452262 Y127.467201;
G1 X38.554828 Y127.081206;
G1 X39.632061 Y126.628422;
G1 X40.679975 Y126.110525;
G1 X41.694697 Y125.529430;
G1 X42.672473 Y124.887286;
G1 X43.609687 Y124.186467;
G1 X44.502874 Y123.429565;
G1 X45.348730 Y122.619380;
G1 X46.144127 Y121.758908;
G1 X46.886123 Y120.851331;
G1 X47.571975 Y119.900005;
G1 X48.199145 Y118.908449;
G1 X48.765315 Y117.880329;
G1 X49.268391 Y116.819448;
G1 X49.706512 Y115.729730;
G1 X50.078058 Y114.615203;
G1 X50.381655 Y113.479991;
G1 X50.616180 Y112.328291;
G1 X50.780766 Y111.164362;
G1 X50.874804 Y109.992509;
G1 X50.899021 Y109.021675;
G1 X50.899021 Y109.021675;
M5;
G1 F3000.0 X39.261624 Y108.721489;
M3 S255;
G1 F750.0 X39.223499 Y107.894196;
G1 X39.109491 Y107.074834;
G1 X38.920693 Y106.271260;
G1 X38.658914 Y105.491178;
G1 X38.326665 Y104.742066;
G1 X37.927130 Y104.031106;
G1 X37.464141 Y103.365116;
G1 X36.942137 Y102.750480;
G1 X36.366121 Y102.193091;
G1 X35.741617 Y101.698293;
G1 X35.074613 Y101.270830;
G1 X34.436738 Y100.944120;
G1 X33.774074 Y100.679043;
G1 X33.091873 Y100.477700;
G1 X32.395540 Y100.341685;
G1 X31.690595 Y100.272078;
G1 X31.308664 Y100.262318;
G1 X30.601389 Y100.295836;
G1 X29.899719 Y100.396124;
G1 X29.209214 Y100.562388;
G1 X28.535347 Y100.793311;
G1 X27.883457 Y101.087061;
G1 X27.258711 Y101.441311;
G1 X26.666059 Y101.853254;
G1 X26.110199 Y102.319626;
G1 X25.595534 Y102.836730;
G1 X25.126144 Y103.400469;
G1 X24.705748 Y104.006375;
G1 X24.337678 Y104.649647;
G1 X24.024851 Y105.325187;
G1 X23.769746 Y106.027641;
G1 X23.574384 Y106.751443;
G1 X23.440313 Y107.490857;
G1 X23.368596 Y108.240023;
G1 X23.355704 Y108.721489;
G1 X23.393829 Y109.548782;
G1 X23.507837 Y110.368144;
G1 X23.696635 Y111.171718;
G1 X23.958414 Y111.951800;
G1 X24.290663 Y112.700912;
G1 X24.690198 Y113.411872;
G1 X25.153187 Y114.077862;
G1 X25.675191 Y114.692498;
G1 X26.251207 Y115.249887;
G1 X26.875711 Y115.744685;
G1 X27.542715 Y116.172148;
G1 X28.180590 Y116.498858;
G1 X28.843254 Y116.763935;
G1 X29.525455 Y116.965278;
G1 X30.221788 Y117.101293;
G1 X30.926733 Y117.170900;
G1 X31.308664 Y117.180660;
G1 X32.015939 Y117.147142;
G1 X32.717609 Y117.046854;
G1 X33.408114 Y116.880590;
G1 X34.081981 Y116.649667;
G1 X34.733871 Y116.355917;
G1 X35.358617 Y116.001667;
G1 X35.951269 Y115.589724;
G1 X36.507129 Y115.123352;
G1 X37.021794 Y114.606248;
G1 X37.491184 Y114.042509;
G1 X37.911580 Y113.436603;
G1 X38.279650 Y112.793331;
G1 X38.592477 Y112.117791;
G1 X38.847582 Y111.415337;
G1 X39.042944 Y110.691535;
G1 X39.177015 Y109.952121;
G1 X39.248732 Y109.202955;
G1 X39.261624 Y108.721489;
G1 X39.261624 Y108.721489;
M5;