G90;
M5;
G21;
M5;
G1 F3000.0 X66.913084 Y42.766330;
M3 S255;
G1 F750.0 X65.479997 Y45.937630;
G1 X64.077978 Y49.038026;
G1 X62.706641 Y52.068409;
G1 X61.365600 Y55.029667;
G1 X60.054469 Y57.922692;
G1 X58.772862 Y60.748374;
G1 X57.520395 Y63.507602;
G1 X56.296681 Y66.201266;
G1 X55.101334 Y68.830257;
G1 X53.933969 Y71.395464;
G1 X52.794200 Y73.897778;
G1 X51.681641 Y76.338089;
G1 X50.595907 Y78.717287;
G1 X49.536612 Y81.036261;
G1 X48.503370 Y83.295902;
G1 X47.495795 Y85.497101;
G1 X46.513502 Y87.640746;
G1 X45.556105 Y89.727728;
G1 X44.623219 Y91.758937;
G1 X43.714457 Y93.735264;
G1 X42.829434 Y95.657598;
G1 X41.967764 Y97.526829;
G1 X41.129061 Y99.343847;
G1 X40.312940 Y101.109543;
G1 X39.519015 Y102.824806;
G1 X38.746900 Y104.490527;
G1 X37.996210 Y106.107595;
G1 X37.266559 Y107.676901;
G1 X36.557560 Y109.199334;
G1 X35.868830 Y110.675785;
G1 X35.199980 Y112.107144;
G1 X34.550627 Y113.494301;
G1 X33.920384 Y114.838146;
G1 X33.308865 Y116.139569;
G1 X32.715686 Y117.399459;
G1 X32.140459 Y118.618708;
G1 X31.582800 Y119.798205;
G1 X31.042322 Y120.938840;
G1 X30.518640 Y122.041503;
G1 X30.011369 Y123.107085;
G1 X29.520121 Y124.136475;
G1 X29.044513 Y125.130563;
G1 X28.584158 Y126.090240;
G1 X28.138670 Y127.016395;
G1 X27.707663 Y127.909919;
G1 X27.290753 Y128.771701;
G1 X26.887553 Y129.602632;
G1 X26.497677 Y130.403602;
G1 X26.120740 Y131.175501;
G1 X25.756356 Y131.919218;
G1 X25.404139 Y132.635645;
G1 X25.063704 Y133.325670;
G1 X24.734664 Y133.990185;
G1 X24.416635 Y134.630078;
G1 X24.109230 Y135.246241;
G1 X23.812064 Y135.839562;
G1 X23.524751 Y136.410933;
G1 X23.246905 Y136.961244;
G1 X22.978141 Y137.491383;
G1 X22.718072 Y138.002242;
G1 X22.466314 Y138.494711;
G1 X22.222480 Y138.969679;
G1 X21.986184 Y139.428037;
G1 X21.757042 Y139.870674;
G1 X21.534667 Y140.298481;
G1 X21.318673 Y140.712348;
G1 X21.108676 Y141.113164;
G1 X20.904288 Y141.501820;
G1 X20.705124 Y141.879207;
G1 X20.510800 Y142.246213;
G1 X20.320928 Y142.603729;
G1 X20.135123 Y142.952646;
G1 X19.953000 Y143.293852;
G1 X19.774173 Y143.628239;
G1 X19.580809 Y143.989250;
G1 X19.371563 Y144.379488;
G1 X19.144781 Y144.802261;
G1 X18.898366 Y145.261889;
G1 X18.629592 Y145.764157;
G1 X18.334837 Y146.316937;
G1 X18.009206 Y146.931073;
G1 X17.679339 Y147.557964;
G1 X17.342383 Y148.204197;
G1 X16.995483 Y148.876358;
G1 X16.635784 Y149.581034;
G1 X16.260433 Y150.324812;
G1 X15.866574 Y151.114277;
G1 X15.451354 Y151.956018;
G1 X15.011918 Y152.856619;
G1 X14.545411 Y153.822669;
G1 X14.095421 Y154.763233;
G1 X13.618555 Y155.768278;
G1 X13.112668 Y156.842753;
G1 X12.625784 Y157.883962;
G1 X12.111532 Y158.990358;
G1 X11.568302 Y160.165661;
G1 X11.047953 Y161.297042;
G1 X10.501113 Y162.491235;
G1 X9.926571 Y163.751035;
G1 X9.323116 Y165.079235;
G1 X9.027158 Y165.732334;
G1 X8.588219 Y167.242148;
G1 X8.191838 Y168.698025;
G1 X7.837197 Y170.100811;
G1 X7.523476 Y171.451349;
G1 X7.249857 Y172.750484;
G1 X7.015523 Y173.999059;
G1 X6.819654 Y175.197919;
G1 X6.661431 Y176.347908;
G1 X6.540038 Y177.449869;
G1 X6.454654 Y178.504648;
G1 X6.404462 Y179.513088;
G1 X6.388644 Y180.476033;
G1 X6.406380 Y181.394328;
G1 X6.456852 Y182.268816;
G1 X6.539242 Y183.100342;
G1 X6.652732 Y183.889750;
G1 X6.796502 Y184.637884;
G1 X6.969735 Y185.345587;
G1 X7.171612 Y186.013705;
G1 X7.401314 Y186.643081;
G1 X7.658024 Y187.234560;
G1 X7.940922 Y187.788985;
G1 X8.249190 Y188.307201;
G1 X8.582010 Y188.790052;
G1 X8.938564 Y189.238381;
G1 X9.318032 Y189.653034;
G1 X9.719596 Y190.034853;
G1 X10.142439 Y190.384684;
G1 X10.585741 Y190.703371;
G1 X11.048684 Y190.991756;
G1 X11.530449 Y191.250686;
G1 X12.030219 Y191.481003;
G1 X12.547174 Y191.683552;
G1 X13.080496 Y191.859178;
G1 X13.629367 Y192.008723;
G1 X14.192969 Y192.133033;
G1 X14.770482 Y192.232951;
G1 X15.361088 Y192.309321;
G1 X15.963970 Y192.362988;
G1 X16.578308 Y192.394796;
G1 X17.203284 Y192.405589;
G1 X17.838079 Y192.396211;
G1 X18.481876 Y192.367506;
G1 X19.133855 Y192.320318;
G1 X19.793198 Y192.255491;
G1 X20.459087 Y192.173870;
G1 X21.130704 Y192.076299;
G1 X21.807229 Y191.963621;
G1 X22.487844 Y191.836681;
G1 X23.171732 Y191.696323;
G1 X23.858073 Y191.543392;
G1 X24.546049 Y191.378730;
G1 X25.234841 Y191.203183;
G1 X25.923632 Y191.017594;
G1 X26.611602 Y190.822808;
G1 X27.297933 Y190.619669;
G1 X27.981807 Y190.409020;
G1 X28.730254 Y190.169642;
G1 X29.473648 Y189.923321;
G1 X30.210899 Y189.671184;
G1 X30.940918 Y189.414352;
G1 X31.662617 Y189.153949;
G1 X32.374905 Y188.891100;
G1 X33.076693 Y188.626927;
G1 X33.766892 Y188.362554;
G1 X34.444412 Y188.099104;
G1 X35.108165 Y187.837702;
G1 X35.757060 Y187.579470;
G1 X36.390009 Y187.325532;
G1 X37.005921 Y187.077012;
G1 X37.603709 Y186.835033;
G1 X38.182281 Y186.600719;
G1 X38.277394 Y186.562236;
G1 X41.669557 Y185.168996;
G1 X44.776026 Y183.839136;
G1 X47.592609 Y182.567780;
G1 X50.127253 Y181.352853;
G1 X52.395276 Y180.193792;
G1 X54.416078 Y179.090709;
G1 X56.387874 Y177.936767;
G1 X58.129811 Y176.840487;
G1 X59.816101 Y175.696344;
G1 X61.294731 Y174.612343;
G1 X62.715991 Y173.484406;
G1 X63.953700 Y172.419126;
G1 X65.135443 Y171.314243;
G1 X66.257150 Y170.168189;
G1 X67.314749 Y168.979397;
G1 X68.217145 Y167.860272;
G1 X69.060134 Y166.703354;
G1 X69.840658 Y165.507464;
G1 X70.555657 Y164.271425;
G1 X71.146221 Y163.111923;
G1 X71.677807 Y161.917382;
G1 X72.148114 Y160.686918;
G1 X72.554845 Y159.419645;
G1 X72.895702 Y158.114679;
G1 X73.168386 Y156.771136;
G1 X73.355187 Y155.515511;
G1 X73.482022 Y154.226609;
G1 X73.547162 Y152.903763;
G1 X73.553415 Y152.581753;
G1 X73.547002 Y150.934153;
G1 X73.485354 Y149.253914;
G1 X73.371859 Y147.545203;
G1 X73.209902 Y145.812185;
G1 X73.002868 Y144.059025;
G1 X72.754143 Y142.289891;
G1 X72.467114 Y140.508947;
G1 X72.145165 Y138.720359;
G1 X71.791683 Y136.928293;
G1 X71.410053 Y135.136914;
G1 X71.003661 Y133.350389;
G1 X70.575893 Y131.572883;
G1 X70.130135 Y129.808562;
G1 X69.669772 Y128.061591;
G1 X69.198190 Y126.336137;
G1 X68.718775 Y124.636365;
G1 X68.234913 Y122.966440;
G1 X67.749989 Y121.330529;
G1 X67.267389 Y119.732798;
G1 X66.790499 Y118.177411;
G1 X66.322705 Y116.668536;
G1 X65.867392 Y115.210336;
G1 X65.427947 Y113.806979;
G1 X65.007754 Y112.462630;
G1 X64.610200 Y111.181455;
G1 X64.238670 Y109.967619;
G1 X63.896551 Y108.825289;
G1 X63.613904 Y107.852362;
G1 X63.360904 Y106.945103;
G1 X63.140097 Y106.106641;
G1 X62.969438 Y105.406737;
G1 X62.849431 Y104.865349;
G1 X62.741313 Y104.369213;
G1 X62.611517 Y103.808907;
G1 X62.460632 Y103.186923;
G1 X62.289247 Y102.505756;
G1 X62.097954 Y101.767901;
G1 X61.887341 Y100.975852;
G1 X61.657999 Y100.132101;
G1 X61.410518 Y99.239145;
G1 X61.145486 Y98.299476;
G1 X60.863495 Y97.315589;
G1 X60.565134 Y96.289978;
G1 X60.250992 Y95.225137;
G1 X59.921660 Y94.123560;
G1 X59.577728 Y92.987741;
G1 X59.219785 Y91.820175;
G1 X58.848421 Y90.623355;
G1 X58.464226 Y89.399776;
G1 X58.067790 Y88.151931;
G1 X57.659703 Y86.882315;
G1 X57.240554 Y85.593422;
G1 X56.810934 Y84.287746;
G1 X56.371432 Y82.967781;
G1 X55.922638 Y81.636021;
G1 X55.465143 Y80.294961;
G1 X54.999535 Y78.947094;
G1 X54.526404 Y77.594914;
G1 X53.997976 Y76.105512;
G1 X53.461945 Y74.617230;
G1 X52.864467 Y72.985374;
G1 X52.259783 Y71.363308;
G1 X51.648939 Y69.755450;
G1 X51.032980 Y68.166219;
G1 X50.412951 Y66.600032;
G1 X49.789896 Y65.061310;
G1 X49.164862 Y63.554469;
G1 X48.538892 Y62.083929;
G1 X47.913031 Y60.654107;
G1 X47.288326 Y59.269423;
G1 X46.665819 Y57.934295;
G1 X46.046558 Y56.653141;
G1 X45.431585 Y55.430380;
G1 X44.821948 Y54.270430;
G1 X44.218689 Y53.177710;
G1 X43.622855 Y52.156638;
G1 X43.035490 Y51.211632;
G1 X42.509750 Y50.422262;
G1 X42.293571 Y50.114300;
G1 X41.632699 Y49.257058;
G1 X40.906035 Y48.441506;
G1 X40.117591 Y47.667726;
G1 X39.271382 Y46.935798;
G1 X38.371422 Y46.245802;
G1 X37.421726 Y45.597820;
G1 X36.426306 Y44.991931;
G1 X35.389177 Y44.428217;
G1 X34.314353 Y43.906758;
G1 X33.205848 Y43.427634;
G1 X32.067676 Y42.990927;
G1 X30.903851 Y42.596716;
G1 X29.718387 Y42.245083;
G1 X28.515297 Y41.936107;
G1 X27.298597 Y41.669871;
G1 X26.072299 Y41.446453;
G1 X24.840419 Y41.265935;
G1 X23.606969 Y41.128397;
G1 X22.375964 Y41.033921;
G1 X21.151418 Y40.982586;
G1 X19.937345 Y40.974473;
G1 X18.737758 Y41.009663;
G1 X17.556672 Y41.088236;
G1 X16.398102 Y41.210273;
G1 X15.266060 Y41.375855;
G1 X14.164560 Y41.585061;
G1 X13.097618 Y41.837974;
G1 X12.069246 Y42.134672;
G1 X11.083459 Y42.475238;
G1 X10.144271 Y42.859751;
G1 X9.255696 Y43.288292;
G1 X8.421747 Y43.760942;
G1 X7.646439 Y44.277781;
G1 X6.933786 Y44.838890;
G1 X6.343667 Y45.387473;
G1 X5.811662 Y45.972770;
G1 X5.340786 Y46.594841;
G1 X4.934056 Y47.253748;
G1 X4.863191 Y47.385170;
G1 X4.505514 Y48.105184;
G1 X4.154394 Y48.893045;
G1 X3.810801 Y49.743879;
G1 X3.475701 Y50.652812;
G1 X3.150064 Y51.614969;
G1 X2.834858 Y52.625477;
G1 X2.531051 Y53.679462;
G1 X2.239611 Y54.772049;
G1 X1.961506 Y55.898365;
G1 X1.697705 Y57.053536;
G1 X1.449175 Y58.232687;
G1 X1.216886 Y59.430944;
G1 X1.001805 Y60.643434;
G1 X0.804901 Y61.865283;
G1 X0.627141 Y63.091616;
G1 X0.469495 Y64.317559;
G1 X0.332929 Y65.538239;
G1 X0.218413 Y66.748781;
G1 X0.126915 Y67.944312;
G1 X0.059403 Y69.119957;
G1 X0.016844 Y70.270842;
G1 X0.000209 Y71.392093;
G1 X0.010463 Y72.478837;
G1 X0.048577 Y73.526198;
G1 X0.115517 Y74.529304;
G1 X0.212253 Y75.483281;
G1 X0.339753 Y76.383253;
G1 X0.498984 Y77.224347;
G1 X0.690915 Y78.001689;
G1 X0.916514 Y78.710406;
G1 X1.151636 Y79.291041;
G1 X1.416110 Y79.807270;
G1 X1.710663 Y80.255431;
G1 X2.036025 Y80.631863;
G1 X2.359154 Y80.908748;
G1 X2.708891 Y81.120574;
G1 X3.085784 Y81.264591;
G1 X3.490378 Y81.338047;
G1 X3.923220 Y81.338191;
G1 X4.341685 Y81.272389;
G1 X4.784359 Y81.141657;
G1 X5.251651 Y80.943929;
G1 X5.743971 Y80.677138;
G1 X6.261732 Y80.339216;
G1 X6.309751 Y80.305130;
G1 X7.131792 Y79.695173;
G1 X7.883596 Y79.092302;
G1 X8.568666 Y78.497195;
G1 X9.190502 Y77.910535;
G1 X9.752606 Y77.333002;
G1 X10.258482 Y76.765277;
G1 X10.711630 Y76.208040;
G1 X11.115553 Y75.661973;
G1 X11.473752 Y75.127756;
G1 X11.789729 Y74.606070;
G1 X12.066987 Y74.097596;
G1 X12.309027 Y73.603014;
G1 X12.519350 Y73.123005;
G1 X12.701460 Y72.658251;
G1 X12.858857 Y72.209432;
G1 X12.995044 Y71.777228;
G1 X13.113523 Y71.362321;
G1 X13.217795 Y70.965392;
G1 X13.311362 Y70.587120;
G1 X13.397727 Y70.228187;
G1 X13.480391 Y69.889274;
G1 X13.562856 Y69.571061;
G1 X13.648624 Y69.274229;
G1 X13.741197 Y68.999460;
G1 X13.844077 Y68.747433;
G1 X13.960765 Y68.518830;
G1 X14.094764 Y68.314331;
G1 X14.249576 Y68.134618;
G1 X14.428702 Y67.980370;
G1 X14.635644 Y67.852269;
G1 X14.873904 Y67.750996;
G1 X15.146985 Y67.677230;
G1 X15.458387 Y67.631654;
G1 X15.811613 Y67.614948;
G1 X15.955331 Y67.616260;
G1 X16.607962 Y67.662520;
G1 X17.296987 Y67.767968;
G1 X18.015582 Y67.926415;
G1 X18.756922 Y68.131669;
G1 X19.514181 Y68.377540;
G1 X20.280534 Y68.657838;
G1 X21.049155 Y68.966373;
G1 X21.813220 Y69.296954;
G1 X22.565904 Y69.643391;
G1 X23.300381 Y69.999493;
G1 X24.009826 Y70.359070;
G1 X24.687413 Y70.715933;
G1 X25.326318 Y71.063889;
G1 X25.919715 Y71.396750;
G1 X26.460780 Y71.708324;
G1 X26.942686 Y71.992422;
G1 X27.358609 Y72.242852;
G1 X27.673719 Y72.436092;
G1 X27.923529 Y72.591742;
G1 X28.089648 Y72.696707;
G1 X28.193710 Y72.763267;
G1 X28.231218 Y72.787510;
G1 X28.231971 Y72.788000;
G1 X18.465321 Y78.469990;
G1 X18.460233 Y78.431408;
G1 X18.444475 Y78.320561;
G1 X18.417308 Y78.144792;
G1 X18.377994 Y77.911448;
G1 X18.325793 Y77.627874;
G1 X18.259965 Y77.301415;
G1 X18.179771 Y76.939417;
G1 X18.084473 Y76.549224;
G1 X17.973331 Y76.138183;
G1 X17.845606 Y75.713638;
G1 X17.700559 Y75.282935;
G1 X17.537449 Y74.853419;
G1 X17.355539 Y74.432436;
G1 X17.154089 Y74.027331;
G1 X16.932360 Y73.645449;
G1 X16.689612 Y73.294136;
G1 X16.425107 Y72.980737;
G1 X16.138105 Y72.712597;
G1 X15.827867 Y72.497062;
G1 X15.493653 Y72.341477;
G1 X15.134725 Y72.253187;
G1 X14.786358 Y72.237501;
G1 X14.416400 Y72.289020;
G1 X14.133971 Y72.371670;
G1 X13.906669 Y72.413960;
G1 X13.673936 Y72.383550;
G1 X13.436966 Y72.283654;
G1 X13.196953 Y72.117484;
G1 X12.955092 Y71.888255;
G1 X12.712578 Y71.599178;
G1 X12.470606 Y71.253468;
G1 X12.230369 Y70.854337;
G1 X11.993062 Y70.405000;
G1 X11.759879 Y69.908668;
G1 X11.532016 Y69.368555;
G1 X11.310667 Y68.787874;
G1 X11.097025 Y68.169839;
G1 X10.892287 Y67.517663;
G1 X10.697645 Y66.834559;
G1 X10.514296 Y66.123739;
G1 X10.343432 Y65.388418;
G1 X10.186250 Y64.631809;
G1 X10.043943 Y63.857124;
G1 X9.917705 Y63.067577;
G1 X9.808732 Y62.266382;
G1 X9.718217 Y61.456750;
G1 X9.647356 Y60.641896;
G1 X9.597342 Y59.825033;
G1 X9.569371 Y59.009373;
G1 X9.564637 Y58.198131;
G1 X9.584334 Y57.394519;
G1 X9.629657 Y56.601750;
G1 X9.701801 Y55.823038;
G1 X9.801959 Y55.061596;
G1 X9.931327 Y54.320637;
G1 X10.091098 Y53.603374;
G1 X10.282468 Y52.913021;
G1 X10.506631 Y52.252790;
G1 X10.764781 Y51.625896;
G1 X11.058113 Y51.035550;
G1 X11.387822 Y50.484966;
G1 X11.755102 Y49.977358;
G1 X12.161147 Y49.515939;
G1 X12.607152 Y49.103921;
G1 X13.094312 Y48.744518;
G1 X13.623820 Y48.440944;
G1 X14.196873 Y48.196411;
G1 X14.814663 Y48.014133;
G1 X15.416118 Y47.905152;
G1 X16.008711 Y47.854540;
G1 X17.713861 Y47.820244;
G1 X19.125821 Y47.861996;
G1 X20.413550 Y47.970040;
G1 X21.589053 Y48.137087;
G1 X22.662767 Y48.354020;
G1 X23.742273 Y48.640231;
G1 X24.729448 Y48.966490;
G1 X25.722872 Y49.361159;
G1 X26.723242 Y49.829551;
G1 X27.639282 Y50.323804;
G1 X28.562162 Y50.887366;
G1 X29.492404 Y51.524227;
G1 X30.430532 Y52.238378;
G1 X31.290660 Y52.958034;
G1 X32.158130 Y53.747863;
G1 X33.033337 Y54.610863;
G1 X33.916673 Y55.550033;
G1 X34.727091 Y56.472444;
G1 X35.544847 Y57.462537;
G1 X36.370239 Y58.522563;
G1 X37.203560 Y59.654775;
G1 X38.045106 Y60.861427;
G1 X38.895172 Y62.144771;
G1 X39.675602 Y63.379894;
G1 X40.463540 Y64.681952;
G1 X41.259208 Y66.052640;
G1 X42.062828 Y67.493649;
G1 X42.874621 Y69.006671;
G1 X43.694810 Y70.593400;
G1 X44.523616 Y72.255528;
G1 X45.361262 Y73.994747;
G1 X46.130616 Y75.644177;
G1 X46.907626 Y77.359989;
G1 X47.692457 Y79.143455;
G1 X48.485278 Y80.995847;
G1 X49.286255 Y82.918436;
G1 X50.095554 Y84.912494;
G1 X50.913343 Y86.979292;
G1 X51.739788 Y89.120103;
G1 X52.575055 Y91.336197;
G1 X53.419312 Y93.628846;
G1 X53.795276 Y94.666630;
G1 X54.778295 Y97.446780;
G1 X55.705108 Y100.174359;
G1 X56.577272 Y102.848967;
G1 X57.396346 Y105.470203;
G1 X58.163889 Y108.037666;
G1 X58.881459 Y110.550956;
G1 X59.550615 Y113.009672;
G1 X60.172916 Y115.413413;
G1 X60.749919 Y117.761778;
G1 X61.283185 Y120.054367;
G1 X61.774270 Y122.290779;
G1 X62.224734 Y124.470613;
G1 X62.636136 Y126.593469;
G1 X63.010033 Y128.658946;
G1 X63.347985 Y130.666642;
G1 X63.651550 Y132.616159;
G1 X63.922287 Y134.507093;
G1 X64.161754 Y136.339046;
G1 X64.371510 Y138.111615;
G1 X64.553113 Y139.824402;
G1 X64.708123 Y141.477003;
G1 X64.838097 Y143.069020;
G1 X64.944594 Y144.600052;
G1 X65.029172 Y146.069696;
G1 X65.093392 Y147.477554;
G1 X65.138809 Y148.823223;
G1 X65.166985 Y150.106304;
G1 X65.179476 Y151.326396;
G1 X65.177843 Y152.483098;
G1 X65.163642 Y153.576009;
G1 X65.138433 Y154.604728;
G1 X65.103774 Y155.568855;
G1 X65.061225 Y156.467989;
G1 X65.012343 Y157.301729;
G1 X64.958687 Y158.069675;
G1 X64.901816 Y158.771426;
G1 X64.843288 Y159.406581;
G1 X64.784662 Y159.974740;
G1 X64.727496 Y160.475501;
G1 X64.673349 Y160.908464;
G1 X64.623780 Y161.273228;
G1 X64.580347 Y161.569393;
G1 X64.544609 Y161.796557;
G1 X64.518124 Y161.954321;
G1 X64.502451 Y162.042283;
G1 X64.498729 Y162.062206;
G1 X63.632251 Y164.271238;
G1 X62.703288 Y166.434783;
G1 X61.715660 Y168.550509;
G1 X60.673185 Y170.616084;
G1 X59.579682 Y172.629174;
G1 X58.438970 Y174.587448;
G1 X57.254868 Y176.488573;
G1 X56.031195 Y178.330217;
G1 X54.771770 Y180.110047;
G1 X53.480412 Y181.825731;
G1 X52.160940 Y183.474938;
G1 X50.817173 Y185.055333;
G1 X49.452930 Y186.564586;
G1 X48.072029 Y188.000363;
G1 X46.678290 Y189.360333;
G1 X45.275531 Y190.642162;
G1 X43.995683 Y191.737691;
G1 X42.714406 Y192.764962;
G1 X41.434570 Y193.722222;
G1 X40.159043 Y194.607719;
G1 X38.890696 Y195.419700;
G1 X37.632396 Y196.156414;
G1 X36.387015 Y196.816107;
G1 X35.268473 Y197.347518;
G1 X34.165134 Y197.812511;
G1 X33.079153 Y198.209770;
G1 X32.012687 Y198.537977;
G1 X30.967890 Y198.795817;
G1 X29.946918 Y198.981973;
G1 X28.951927 Y199.095129;
G1 X28.071750 Y199.133542;
G1 X27.216445 Y199.109546;
G1 X26.387634 Y199.022154;
G1 X25.586934 Y198.870374;
G1 X24.815967 Y198.653219;
G1 X24.076351 Y198.369699;
G1 X23.369706 Y198.018825;
G1 X22.697652 Y197.599607;
G1 X22.061808 Y197.111057;
G1 X21.516554 Y196.605924;
G1 X21.003780 Y196.041931;
G1 X20.524705 Y195.418335;
G1 X20.080544 Y194.734392;
G1 X19.672516 Y193.989359;
G1 X19.301836 Y193.182494;
G1 X18.969721 Y192.313053;
G1 X18.677389 Y191.380292;
G1 X18.426056 Y190.383470;
G1 X18.216938 Y189.321842;
G1 X18.051254 Y188.194665;
G1 X17.939345 Y187.112452;
G1 X17.865251 Y185.974895;
G1 X17.829886 Y184.781434;
G1 X17.834164 Y183.531512;
G1 X17.878999 Y182.224569;
G1 X17.965306 Y180.860048;
G1 X18.093999 Y179.437391;
G1 X18.265992 Y177.956039;
G1 X18.482199 Y176.415433;
G1 X18.743535 Y174.815015;
G1 X19.050913 Y173.154227;
G1 X19.405249 Y171.432511;
G1 X19.807455 Y169.649308;
G1 X20.258447 Y167.804060;
G1 X20.711544 Y166.072251;
G1 X21.206402 Y164.288285;
G1 X21.743707 Y162.451740;
G1 X22.324147 Y160.562199;
G1 X22.948409 Y158.619242;
G1 X23.617179 Y156.622448;
G1 X24.331144 Y154.571399;
G1 X24.718897 Y153.487699;
G1 X25.290528 Y151.988499;
G1 X25.909274 Y150.430402;
G1 X26.573434 Y148.815896;
G1 X27.281305 Y147.147468;
G1 X28.031187 Y145.427607;
G1 X28.821378 Y143.658799;
G1 X29.650175 Y141.843532;
G1 X30.515879 Y139.984294;
G1 X31.416787 Y138.083571;
G1 X32.351197 Y136.143851;
G1 X33.317408 Y134.167623;
G1 X34.313719 Y132.157372;
G1 X35.338428 Y130.115587;
G1 X36.389833 Y128.044756;
G1 X37.466233 Y125.947365;
G1 X38.565927 Y123.825902;
G1 X39.687212 Y121.682855;
G1 X40.828387 Y119.520711;
G1 X41.987751 Y117.341958;
G1 X43.163602 Y115.149082;
G1 X44.354239 Y112.944572;
G1 X45.557960 Y110.730915;
G1 X46.773063 Y108.510598;
G1 X47.997847 Y106.286109;
G1 X49.230610 Y104.059936;
G1 X50.593835 Y101.612168;
G1 X52.099453 Y98.924696;
G1 X53.608507 Y96.246813;
G1 X55.117984 Y93.582925;
G1 X56.624869 Y90.937439;
G1 X58.126146 Y88.314760;
G1 X59.618803 Y85.719297;
G1 X61.099824 Y83.155455;
G1 X62.566196 Y80.627642;
G1 X64.014903 Y78.140264;
G1 X65.442931 Y75.697727;
G1 X66.847266 Y73.304439;
G1 X68.224894 Y70.964807;
G1 X69.572800 Y68.683236;
G1 X70.887970 Y66.464133;
G1 X72.167389 Y64.311907;
G1 X73.296938 Y62.417077;
G1 X74.392184 Y60.584469;
G1 X75.450864 Y58.817393;
G1 X76.379663 Y57.270614;
G1 X77.274668 Y55.783217;
G1 X78.134177 Y54.357690;
G1 X78.956490 Y52.996521;
G1 X79.739905 Y51.702197;
G1 X80.416913 Y50.585638;
G1 X81.059090 Y49.528248;
G1 X81.665155 Y48.531895;
G1 X82.233832 Y47.598448;
G1 X82.763842 Y46.729776;
G1 X83.253906 Y45.927748;
G1 X83.663680 Y45.258036;
G1 X84.038423 Y44.646351;
G1 X84.377176 Y44.094095;
G1 X84.678978 Y43.602675;
G1 X84.942869 Y43.173493;
G1 X85.167888 Y42.807953;
G1 X85.353074 Y42.507461;
G1 X85.497468 Y42.273419;
G1 X85.592528 Y42.119500;
G1 X85.652359 Y42.022714;
G1 X85.676241 Y41.984116;
G1 X85.676678 Y41.983410;
G1 X66.913084 Y42.766330;
M5;
G1 F3000.0 X56.903671 Y86.345700;
M3 S255;
G1 F750.0 X57.910072 Y86.459351;
G1 X58.849360 Y86.591302;
G1 X59.724814 Y86.739412;
G1 X60.539714 Y86.901541;
G1 X61.297340 Y87.075549;
G1 X62.000972 Y87.259293;
G1 X62.653890 Y87.450635;
G1 X63.259373 Y87.647432;
G1 X63.820700 Y87.847545;
G1 X64.341153 Y88.048833;
G1 X64.824009 Y88.249155;
G1 X65.272550 Y88.446370;
G1 X65.690056 Y88.638338;
G1 X66.079804 Y88.822917;
G1 X66.445077 Y88.997968;
G1 X66.789152 Y89.161350;
G1 X67.115310 Y89.310922;
G1 X67.426832 Y89.444542;
G1 X67.726995 Y89.560072;
G1 X68.019081 Y89.655369;
G1 X68.306369 Y89.728294;
G1 X68.592139 Y89.776705;
G1 X68.879670 Y89.798462;
G1 X69.172242 Y89.791424;
G1 X69.473135 Y89.753451;
G1 X69.785629 Y89.682402;
G1 X70.113004 Y89.576136;
G1 X70.458539 Y89.432512;
G1 X70.825514 Y89.249390;
G1 X71.217208 Y89.024629;
G1 X71.636902 Y88.756089;
G1 X72.087876 Y88.441628;
G1 X72.573408 Y88.079106;
G1 X73.096779 Y87.666383;
G1 X73.661269 Y87.201318;
G1 X74.270156 Y86.681769;
G1 X74.926722 Y86.105597;
G1 X75.634246 Y85.470661;
G1 X76.324428 Y84.840651;
G1 X77.061900 Y84.158698;
G1 X77.849123 Y83.423193;
G1 X78.647311 Y82.671510;
G1 X79.683117 Y81.720286;
G1 X80.700121 Y80.839773;
G1 X81.698172 Y80.027360;
G1 X82.677120 Y79.280436;
G1 X83.636814 Y78.596391;
G1 X84.577104 Y77.972614;
G1 X85.497837 Y77.406494;
G1 X86.398864 Y76.895420;
G1 X87.280034 Y76.436782;
G1 X88.141196 Y76.027969;
G1 X88.982199 Y75.666370;
G1 X89.802892 Y75.349374;
G1 X90.603125 Y75.074370;
G1 X91.382747 Y74.838748;
G1 X92.141607 Y74.639898;
G1 X92.879554 Y74.475207;
G1 X93.596438 Y74.342066;
G1 X94.292107 Y74.237864;
G1 X94.966411 Y74.159989;
G1 X95.619199 Y74.105832;
G1 X96.250320 Y74.072782;
G1 X96.859624 Y74.058227;
G1 X97.446960 Y74.059556;
G1 X98.012176 Y74.074160;
G1 X98.555123 Y74.099428;
G1 X99.075649 Y74.132748;
G1 X99.573603 Y74.171510;
G1 X100.048835 Y74.213103;
G1 X100.501194 Y74.254916;
G1 X100.930530 Y74.294339;
G1 X101.336691 Y74.328761;
G1 X101.719526 Y74.355571;
G1 X102.078885 Y74.372158;
G1 X102.414617 Y74.375911;
G1 X102.726572 Y74.364221;
G1 X103.014597 Y74.334475;
G1 X103.278544 Y74.284064;
G1 X103.475010 Y74.226140;
G1 X103.818505 Y74.099650;
G1 X104.226491 Y73.936707;
G1 X104.692140 Y73.737184;
G1 X105.208622 Y73.500954;
G1 X105.769108 Y73.227890;
G1 X106.366768 Y72.917865;
G1 X106.994774 Y72.570750;
G1 X107.646294 Y72.186420;
G1 X108.314501 Y71.764747;
G1 X108.992565 Y71.305603;
G1 X109.673656 Y70.808862;
G1 X110.350945 Y70.274396;
G1 X111.017602 Y69.702078;
G1 X111.666799 Y69.091781;
G1 X112.291705 Y68.443377;
G1 X112.885492 Y67.756740;
G1 X113.441329 Y67.031742;
G1 X113.952388 Y66.268256;
G1 X114.411840 Y65.466154;
G1 X114.812854 Y64.625311;
G1 X115.148601 Y63.745597;
G1 X115.391443 Y62.912021;
G1 X115.569570 Y62.046120;
G1 X115.677851 Y61.147799;
G1 X115.711361 Y60.302930;
G1 X115.679053 Y59.431118;
G1 X115.577069 Y58.532289;
G1 X115.420653 Y57.691667;
G1 X115.200571 Y56.828606;
G1 X114.935960 Y56.005030;
G1 X114.808948 Y55.724229;
G1 X114.651144 Y55.507841;
G1 X114.464648 Y55.352450;
G1 X114.251563 Y55.254643;
G1 X114.013991 Y55.211005;
G1 X113.754032 Y55.218121;
G1 X113.473789 Y55.272576;
G1 X113.175363 Y55.370955;
G1 X112.860856 Y55.509845;
G1 X112.532369 Y55.685830;
G1 X112.192005 Y55.895496;
G1 X111.841863 Y56.135428;
G1 X111.484047 Y56.402212;
G1 X111.120658 Y56.692432;
G1 X110.753797 Y57.002674;
G1 X110.385566 Y57.329524;
G1 X110.018067 Y57.669566;
G1 X109.653402 Y58.019387;
G1 X109.293671 Y58.375571;
G1 X108.906175 Y58.770648;
G1 X108.529990 Y59.164749;
G1 X108.167914 Y59.553327;
G1 X107.822744 Y59.931839;
G1 X107.497277 Y60.295739;
G1 X107.194311 Y60.640483;
G1 X106.916642 Y60.961526;
G1 X106.667068 Y61.254322;
G1 X106.448386 Y61.514327;
G1 X106.263394 Y61.736996;
G1 X106.114888 Y61.917784;
G1 X106.005666 Y62.052147;
G1 X105.938525 Y62.135538;
G1 X105.916250 Y62.163430;
G1 X105.879996 Y62.168179;
G1 X105.773471 Y62.182349;
G1 X105.600030 Y62.205824;
G1 X105.363031 Y62.238490;
G1 X105.065829 Y62.280230;
G1 X104.711780 Y62.330928;
G1 X104.304240 Y62.390470;
G1 X103.846565 Y62.458740;
G1 X103.342111 Y62.535623;
G1 X102.794234 Y62.621002;
G1 X102.206290 Y62.714763;
G1 X101.581635 Y62.816790;
G1 X100.923625 Y62.926966;
G1 X100.235616 Y63.045178;
G1 X99.520964 Y63.171309;
G1 X98.783026 Y63.305244;
G1 X98.025156 Y63.446868;
G1 X97.250712 Y63.596064;
G1 X96.463048 Y63.752717;
G1 X95.665522 Y63.916712;
G1 X94.861489 Y64.087934;
G1 X94.054304 Y64.266266;
G1 X93.166768 Y64.470507;
G1 X92.283947 Y64.683058;
G1 X91.410307 Y64.903766;
G1 X90.550316 Y65.132477;
G1 X89.708441 Y65.369037;
G1 X88.889148 Y65.613293;
G1 X88.096905 Y65.865090;
G1 X87.336177 Y66.124276;
G1 X86.611433 Y66.390696;
G1 X85.927138 Y66.664196;
G1 X85.287760 Y66.944624;
G1 X84.697765 Y67.231824;
G1 X84.161620 Y67.525644;
G1 X83.683793 Y67.825929;
G1 X83.268750 Y68.132527;
G1 X82.920957 Y68.445282;
G1 X82.644883 Y68.764042;
G1 X82.476581 Y69.027130;
G1 X82.256320 Y69.406990;
G1 X81.983814 Y69.826419;
G1 X81.662638 Y70.282328;
G1 X81.296364 Y70.771627;
G1 X80.888569 Y71.291225;
G1 X80.442826 Y71.838034;
G1 X79.962709 Y72.408963;
G1 X79.451794 Y73.000923;
G1 X78.913653 Y73.610824;
G1 X78.351862 Y74.235577;
G1 X77.769994 Y74.872090;
G1 X77.171625 Y75.517276;
G1 X76.560328 Y76.168044;
G1 X75.939678 Y76.821303;
G1 X75.250426 Y77.539080;
G1 X74.489850 Y78.322891;
G1 X73.732902 Y79.095377;
G1 X72.985913 Y79.851066;
G1 X72.255216 Y80.584482;
G1 X71.547144 Y81.290153;
G1 X70.868027 Y81.962604;
G1 X70.224199 Y82.596363;
G1 X69.621991 Y83.185954;
G1 X69.067736 Y83.725906;
G1 X68.610808 Y84.169088;
G1 X68.203500 Y84.562610;
G1 X67.850570 Y84.902357;
G1 X67.580916 Y85.161095;
G1 X67.363708 Y85.368904;
G1 X67.214766 Y85.511025;
G1 X67.114808 Y85.606182;
G1 X67.066519 Y85.652051;
G1 X67.062271 Y85.656080;
G1 X56.903671 Y86.345700;
M5;