G90;
M5;
G21;
M5;
G1 F3000.0 X0.349748 Y0.094820;
M3 S255;
G1 F750.0 X-1.083338 Y3.266122;
G1 X-2.485358 Y6.366521;
G1 X-3.856695 Y9.396906;
G1 X-5.197736 Y12.358167;
G1 X-6.508867 Y15.251194;
G1 X-7.790473 Y18.076877;
G1 X-9.042941 Y20.836107;
G1 X-10.266655 Y23.529774;
G1 X-11.462002 Y26.158767;
G1 X-12.629367 Y28.723976;
G1 X-13.769136 Y31.226292;
G1 X-14.881695 Y33.666605;
G1 X-15.967429 Y36.045804;
G1 X-17.026724 Y38.364781;
G1 X-18.059966 Y40.624424;
G1 X-19.067541 Y42.825624;
G1 X-20.049833 Y44.969271;
G1 X-21.007230 Y47.056255;
G1 X-21.940117 Y49.087466;
G1 X-22.848879 Y51.063794;
G1 X-23.733902 Y52.986129;
G1 X-24.595572 Y54.855362;
G1 X-25.434275 Y56.672382;
G1 X-26.250396 Y58.438079;
G1 X-27.044321 Y60.153344;
G1 X-27.816436 Y61.819066;
G1 X-28.567126 Y63.436136;
G1 X-29.296777 Y65.005443;
G1 X-30.005775 Y66.527878;
G1 X-30.694506 Y68.004331;
G1 X-31.363356 Y69.435691;
G1 X-32.012709 Y70.822849;
G1 X-32.642952 Y72.166695;
G1 X-33.254470 Y73.468119;
G1 X-33.847650 Y74.728011;
G1 X-34.422877 Y75.947261;
G1 X-34.980536 Y77.126759;
G1 X-35.521014 Y78.267395;
G1 X-36.044696 Y79.370059;
G1 X-36.551967 Y80.435642;
G1 X-37.043214 Y81.465033;
G1 X-37.518823 Y82.459122;
G1 X-37.979178 Y83.418800;
G1 X-38.424666 Y84.344956;
G1 X-38.855672 Y85.238481;
G1 X-39.272583 Y86.100264;
G1 X-39.675783 Y86.931196;
G1 X-40.065659 Y87.732167;
G1 X-40.442596 Y88.504067;
G1 X-40.806980 Y89.247785;
G1 X-41.159197 Y89.964212;
G1 X-41.499632 Y90.654238;
G1 X-41.828672 Y91.318753;
G1 X-42.146701 Y91.958647;
G1 X-42.454106 Y92.574811;
G1 X-42.751272 Y93.168133;
G1 X-43.038585 Y93.739505;
G1 X-43.316431 Y94.289816;
G1 X-43.585195 Y94.819956;
G1 X-43.845264 Y95.330816;
G1 X-44.097022 Y95.823285;
G1 X-44.340856 Y96.298254;
G1 X-44.577151 Y96.756612;
G1 X-44.806294 Y97.199249;
G1 X-45.028669 Y97.627057;
G1 X-45.244662 Y98.040924;
G1 X-45.454660 Y98.441741;
G1 X-45.659048 Y98.830398;
G1 X-45.858211 Y99.207785;
G1 X-46.052536 Y99.574791;
G1 X-46.242408 Y99.932308;
G1 X-46.428212 Y100.281225;
G1 X-46.610335 Y100.622432;
G1 X-46.789163 Y100.956819;
G1 X-46.982527 Y101.317830;
G1 X-47.191772 Y101.708069;
G1 X-47.418555 Y102.130842;
G1 X-47.664970 Y102.590471;
G1 X-47.933744 Y103.092739;
G1 X-48.228499 Y103.645519;
G1 X-48.554130 Y104.259656;
G1 X-48.883997 Y104.886547;
G1 X-49.220953 Y105.532780;
G1 X-49.567853 Y106.204942;
G1 X-49.927551 Y106.909618;
G1 X-50.302903 Y107.653395;
G1 X-50.696761 Y108.442861;
G1 X-51.111982 Y109.284602;
G1 X-51.551418 Y110.185204;
G1 X-52.017925 Y111.151254;
G1 X-52.467915 Y112.091817;
G1 X-52.944781 Y113.096862;
G1 X-53.450667 Y114.171337;
G1 X-53.937551 Y115.212546;
G1 X-54.451803 Y116.318943;
G1 X-54.995034 Y117.494246;
G1 X-55.515382 Y118.625626;
G1 X-56.062222 Y119.819819;
G1 X-56.636764 Y121.079619;
G1 X-57.240219 Y122.407819;
G1 X-57.536177 Y123.060918;
G1 X-57.975116 Y124.570732;
G1 X-58.371497 Y126.026610;
G1 X-58.726139 Y127.429396;
G1 X-59.039860 Y128.779935;
G1 X-59.313478 Y130.079069;
G1 X-59.547813 Y131.327645;
G1 X-59.743682 Y132.526505;
G1 X-59.901904 Y133.676494;
G1 X-60.023298 Y134.778456;
G1 X-60.108681 Y135.833235;
G1 X-60.158873 Y136.841675;
G1 X-60.174692 Y137.804620;
G1 X-60.156956 Y138.722915;
G1 X-60.106484 Y139.597404;
G1 X-60.024094 Y140.428930;
G1 X-59.910604 Y141.218337;
G1 X-59.766834 Y141.966471;
G1 X-59.593601 Y142.674175;
G1 X-59.391724 Y143.342293;
G1 X-59.162022 Y143.971669;
G1 X-58.905312 Y144.563148;
G1 X-58.622414 Y145.117573;
G1 X-58.314146 Y145.635789;
G1 X-57.981326 Y146.118640;
G1 X-57.624772 Y146.566969;
G1 X-57.245304 Y146.981622;
G1 X-56.843740 Y147.363441;
G1 X-56.420897 Y147.713272;
G1 X-55.977595 Y148.031959;
G1 X-55.514652 Y148.320344;
G1 X-55.032887 Y148.579274;
G1 X-54.533117 Y148.809591;
G1 X-54.016162 Y149.012140;
G1 X-53.482840 Y149.187765;
G1 X-52.933969 Y149.337311;
G1 X-52.370367 Y149.461620;
G1 X-51.792854 Y149.561538;
G1 X-51.202248 Y149.637909;
G1 X-50.599366 Y149.691576;
G1 X-49.985028 Y149.723384;
G1 X-49.360052 Y149.734176;
G1 X-48.725257 Y149.724798;
G1 X-48.081460 Y149.696093;
G1 X-47.429481 Y149.648905;
G1 X-46.770138 Y149.584078;
G1 X-46.104249 Y149.502457;
G1 X-45.432632 Y149.404885;
G1 X-44.756107 Y149.292208;
G1 X-44.075492 Y149.165268;
G1 X-43.391604 Y149.024910;
G1 X-42.705263 Y148.871978;
G1 X-42.017287 Y148.707316;
G1 X-41.328495 Y148.531769;
G1 X-40.639704 Y148.346180;
G1 X-39.951734 Y148.151394;
G1 X-39.265403 Y147.948255;
G1 X-38.581529 Y147.737606;
G1 X-37.833082 Y147.498227;
G1 X-37.089688 Y147.251907;
G1 X-36.352437 Y146.999769;
G1 X-35.622418 Y146.742937;
G1 X-34.900719 Y146.482534;
G1 X-34.188431 Y146.219685;
G1 X-33.486643 Y145.955511;
G1 X-32.796444 Y145.691138;
G1 X-32.118924 Y145.427689;
G1 X-31.455171 Y145.166286;
G1 X-30.806276 Y144.908054;
G1 X-30.173327 Y144.654116;
G1 X-29.557415 Y144.405596;
G1 X-28.959627 Y144.163617;
G1 X-28.381055 Y143.929303;
G1 X-28.285942 Y143.890820;
G1 X-24.893779 Y142.497580;
G1 X-21.787310 Y141.167720;
G1 X-18.970727 Y139.896364;
G1 X-16.436083 Y138.681437;
G1 X-14.168060 Y137.522376;
G1 X-12.147258 Y136.419293;
G1 X-10.175462 Y135.265351;
G1 X-8.433525 Y134.169071;
G1 X-6.747235 Y133.024928;
G1 X-5.268605 Y131.940927;
G1 X-3.847345 Y130.812990;
G1 X-2.609636 Y129.747710;
G1 X-1.427892 Y128.642827;
G1 X-0.306185 Y127.496773;
G1 X0.751413 Y126.307981;
G1 X1.653809 Y125.188856;
G1 X2.496798 Y124.031938;
G1 X3.277322 Y122.836048;
G1 X3.992321 Y121.600009;
G1 X4.582886 Y120.440507;
G1 X5.114471 Y119.245966;
G1 X5.584778 Y118.015502;
G1 X5.991509 Y116.748229;
G1 X6.332366 Y115.443263;
G1 X6.605050 Y114.099720;
G1 X6.791852 Y112.844095;
G1 X6.918686 Y111.555193;
G1 X6.983826 Y110.232347;
G1 X6.990079 Y109.910337;
G1 X6.983666 Y108.262737;
G1 X6.922019 Y106.582498;
G1 X6.808523 Y104.873786;
G1 X6.646566 Y103.140767;
G1 X6.439532 Y101.387608;
G1 X6.190808 Y99.618472;
G1 X5.903778 Y97.837527;
G1 X5.581829 Y96.048938;
G1 X5.228347 Y94.256871;
G1 X4.846717 Y92.465491;
G1 X4.440325 Y90.678965;
G1 X4.012558 Y88.901457;
G1 X3.566799 Y87.137134;
G1 X3.106436 Y85.390162;
G1 X2.634854 Y83.664706;
G1 X2.155439 Y81.964931;
G1 X1.671577 Y80.295005;
G1 X1.186653 Y78.659092;
G1 X0.704053 Y77.061358;
G1 X0.227163 Y75.505969;
G1 X-0.240631 Y73.997090;
G1 X-0.695944 Y72.538888;
G1 X-1.135389 Y71.135528;
G1 X-1.555582 Y69.791176;
G1 X-1.953136 Y68.509998;
G1 X-2.324665 Y67.296159;
G1 X-2.666785 Y66.153825;
G1 X-2.949432 Y65.180895;
G1 X-3.202431 Y64.273633;
G1 X-3.423239 Y63.435168;
G1 X-3.593898 Y62.735261;
G1 X-3.713905 Y62.193870;
G1 X-3.822023 Y61.697732;
G1 X-3.951819 Y61.137424;
G1 X-4.102704 Y60.515439;
G1 X-4.274089 Y59.834271;
G1 X-4.465382 Y59.096414;
G1 X-4.675995 Y58.304363;
G1 X-4.905337 Y57.460611;
G1 X-5.152818 Y56.567653;
G1 X-5.417850 Y55.627983;
G1 X-5.699841 Y54.644095;
G1 X-5.998202 Y53.618483;
G1 X-6.312344 Y52.553640;
G1 X-6.641676 Y51.452062;
G1 X-6.985608 Y50.316243;
G1 X-7.343551 Y49.148676;
G1 X-7.714915 Y47.951855;
G1 X-8.099110 Y46.728275;
G1 X-8.495546 Y45.480429;
G1 X-8.903633 Y44.210813;
G1 X-9.322782 Y42.921919;
G1 X-9.752402 Y41.616242;
G1 X-10.191904 Y40.296276;
G1 X-10.640697 Y38.964516;
G1 X-11.098193 Y37.623455;
G1 X-11.563801 Y36.275588;
G1 X-12.036932 Y34.923407;
G1 X-12.565360 Y33.434005;
G1 X-13.101391 Y31.945722;
G1 X-13.698869 Y30.313866;
G1 X-14.303553 Y28.691800;
G1 X-14.914397 Y27.083942;
G1 X-15.530356 Y25.494710;
G1 X-16.150385 Y23.928523;
G1 X-16.773440 Y22.389801;
G1 X-17.398474 Y20.882960;
G1 X-18.024444 Y19.412419;
G1 X-18.650305 Y17.982598;
G1 X-19.275010 Y16.597914;
G1 X-19.897516 Y15.262785;
G1 X-20.516778 Y13.981632;
G1 X-21.131750 Y12.758870;
G1 X-21.741388 Y11.598920;
G1 X-22.344647 Y10.506200;
G1 X-22.940481 Y9.485128;
G1 X-23.527846 Y8.540122;
G1 X-24.053586 Y7.750752;
G1 X-24.269765 Y7.442790;
G1 X-24.930637 Y6.585548;
G1 X-25.657301 Y5.769996;
G1 X-26.445745 Y4.996216;
G1 X-27.291954 Y4.264288;
G1 X-28.191914 Y3.574292;
G1 X-29.141610 Y2.926310;
G1 X-30.137030 Y2.320421;
G1 X-31.174159 Y1.756707;
G1 X-32.248983 Y1.235248;
G1 X-33.357488 Y0.756124;
G1 X-34.495660 Y0.319417;
G1 X-35.659485 Y-0.074794;
G1 X-36.844949 Y-0.426427;
G1 X-38.048039 Y-0.735403;
G1 X-39.264739 Y-1.001639;
G1 X-40.491037 Y-1.225057;
G1 X-41.722917 Y-1.405575;
G1 X-42.956367 Y-1.543113;
G1 X-44.187372 Y-1.637589;
G1 X-45.411918 Y-1.688924;
G1 X-46.625992 Y-1.697037;
G1 X-47.825578 Y-1.661847;
G1 X-49.006664 Y-1.583274;
G1 X-50.165234 Y-1.461237;
G1 X-51.297276 Y-1.295655;
G1 X-52.398776 Y-1.086449;
G1 X-53.465718 Y-0.833536;
G1 X-54.494090 Y-0.536838;
G1 X-55.479877 Y-0.196272;
G1 X-56.419065 Y0.188241;
G1 X-57.307640 Y0.616782;
G1 X-58.141589 Y1.089432;
G1 X-58.916897 Y1.606271;
G1 X-59.629550 Y2.167380;
G1 X-60.219669 Y2.715963;
G1 X-60.751675 Y3.301260;
G1 X-61.222550 Y3.923331;
G1 X-61.629280 Y4.582238;
G1 X-61.700145 Y4.713660;
G1 X-62.057822 Y5.433674;
G1 X-62.408942 Y6.221535;
G1 X-62.752536 Y7.072369;
G1 X-63.087635 Y7.981302;
G1 X-63.413272 Y8.943459;
G1 X-63.728478 Y9.953967;
G1 X-64.032285 Y11.007952;
G1 X-64.323726 Y12.100539;
G1 X-64.601830 Y13.226855;
G1 X-64.865631 Y14.382026;
G1 X-65.114161 Y15.561177;
G1 X-65.346450 Y16.759434;
G1 X-65.561531 Y17.971924;
G1 X-65.758435 Y19.193773;
G1 X-65.936195 Y20.420106;
G1 X-66.093842 Y21.646049;
G1 X-66.230407 Y22.866729;
G1 X-66.344923 Y24.077271;
G1 X-66.436421 Y25.272802;
G1 X-66.503934 Y26.448447;
G1 X-66.546492 Y27.599332;
G1 X-66.563128 Y28.720583;
G1 X-66.552873 Y29.807327;
G1 X-66.514759 Y30.854688;
G1 X-66.447819 Y31.857794;
G1 X-66.351083 Y32.811771;
G1 X-66.223583 Y33.711743;
G1 X-66.064352 Y34.552837;
G1 X-65.872421 Y35.330179;
G1 X-65.646822 Y36.038896;
G1 X-65.411701 Y36.619531;
G1 X-65.147227 Y37.135760;
G1 X-64.852673 Y37.583921;
G1 X-64.527311 Y37.960353;
G1 X-64.204182 Y38.237238;
G1 X-63.854445 Y38.449064;
G1 X-63.477552 Y38.593081;
G1 X-63.072958 Y38.666537;
G1 X-62.640116 Y38.666681;
G1 X-62.221651 Y38.600879;
G1 X-61.778978 Y38.470147;
G1 X-61.311686 Y38.272419;
G1 X-60.819365 Y38.005628;
G1 X-60.301604 Y37.667706;
G1 X-60.253585 Y37.633620;
G1 X-59.431544 Y37.023663;
G1 X-58.679740 Y36.420792;
G1 X-57.994671 Y35.825685;
G1 X-57.372835 Y35.239025;
G1 X-56.810730 Y34.661492;
G1 X-56.304854 Y34.093767;
G1 X-55.851706 Y33.536530;
G1 X-55.447783 Y32.990463;
G1 X-55.089584 Y32.456246;
G1 X-54.773607 Y31.934560;
G1 X-54.496349 Y31.426086;
G1 X-54.254310 Y30.931504;
G1 X-54.043986 Y30.451495;
G1 X-53.861876 Y29.986741;
G1 X-53.704479 Y29.537922;
G1 X-53.568292 Y29.105718;
G1 X-53.449813 Y28.690811;
G1 X-53.345541 Y28.293882;
G1 X-53.251974 Y27.915610;
G1 X-53.165609 Y27.556677;
G1 X-53.082945 Y27.217764;
G1 X-53.000480 Y26.899551;
G1 X-52.914712 Y26.602719;
G1 X-52.822139 Y26.327950;
G1 X-52.719259 Y26.075923;
G1 X-52.602571 Y25.847320;
G1 X-52.468572 Y25.642821;
G1 X-52.313760 Y25.463108;
G1 X-52.134634 Y25.308860;
G1 X-51.927692 Y25.180759;
G1 X-51.689432 Y25.079486;
G1 X-51.416351 Y25.005720;
G1 X-51.104949 Y24.960144;
G1 X-50.751723 Y24.943438;
G1 X-50.608005 Y24.944750;
G1 X-49.955374 Y24.991010;
G1 X-49.266349 Y25.096458;
G1 X-48.547754 Y25.254905;
G1 X-47.806414 Y25.460159;
G1 X-47.049155 Y25.706030;
G1 X-46.282802 Y25.986328;
G1 X-45.514181 Y26.294863;
G1 X-44.750116 Y26.625444;
G1 X-43.997432 Y26.971881;
G1 X-43.262955 Y27.327983;
G1 X-42.553510 Y27.687560;
G1 X-41.875923 Y28.044423;
G1 X-41.237018 Y28.392379;
G1 X-40.643621 Y28.725240;
G1 X-40.102556 Y29.036814;
G1 X-39.620650 Y29.320912;
G1 X-39.204727 Y29.571342;
G1 X-38.889617 Y29.764582;
G1 X-38.639807 Y29.920232;
G1 X-38.473688 Y30.025197;
G1 X-38.369626 Y30.091757;
G1 X-38.332118 Y30.116000;
G1 X-38.331365 Y30.116490;
G1 X-48.098015 Y35.798480;
G1 X-48.103103 Y35.759898;
G1 X-48.118861 Y35.649051;
G1 X-48.146028 Y35.473282;
G1 X-48.185342 Y35.239938;
G1 X-48.237543 Y34.956364;
G1 X-48.303371 Y34.629905;
G1 X-48.383565 Y34.267907;
G1 X-48.478863 Y33.877714;
G1 X-48.590005 Y33.466673;
G1 X-48.717730 Y33.042128;
G1 X-48.862777 Y32.611425;
G1 X-49.025887 Y32.181909;
G1 X-49.207797 Y31.760926;
G1 X-49.409247 Y31.355821;
G1 X-49.630976 Y30.973939;
G1 X-49.873724 Y30.622626;
G1 X-50.138229 Y30.309227;
G1 X-50.425231 Y30.041087;
G1 X-50.735469 Y29.825552;
G1 X-51.069683 Y29.669967;
G1 X-51.428611 Y29.581677;
G1 X-51.776978 Y29.565991;
G1 X-52.146936 Y29.617510;
G1 X-52.429365 Y29.700160;
G1 X-52.656667 Y29.742450;
G1 X-52.889400 Y29.712040;
G1 X-53.126370 Y29.612144;
G1 X-53.366383 Y29.445974;
G1 X-53.608244 Y29.216745;
G1 X-53.850758 Y28.927668;
G1 X-54.092730 Y28.581958;
G1 X-54.332967 Y28.182827;
G1 X-54.570274 Y27.733490;
G1 X-54.803457 Y27.237158;
G1 X-55.031320 Y26.697045;
G1 X-55.252669 Y26.116364;
G1 X-55.466311 Y25.498329;
G1 X-55.671049 Y24.846153;
G1 X-55.865691 Y24.163049;
G1 X-56.049040 Y23.452229;
G1 X-56.219904 Y22.716908;
G1 X-56.377086 Y21.960299;
G1 X-56.519394 Y21.185614;
G1 X-56.645631 Y20.396067;
G1 X-56.754604 Y19.594872;
G1 X-56.845119 Y18.785240;
G1 X-56.915980 Y17.970386;
G1 X-56.965994 Y17.153523;
G1 X-56.993965 Y16.337863;
G1 X-56.998699 Y15.526621;
G1 X-56.979002 Y14.723009;
G1 X-56.933679 Y13.930240;
G1 X-56.861535 Y13.151528;
G1 X-56.761377 Y12.390086;
G1 X-56.632010 Y11.649127;
G1 X-56.472238 Y10.931864;
G1 X-56.280868 Y10.241511;
G1 X-56.056705 Y9.581280;
G1 X-55.798555 Y8.954386;
G1 X-55.505223 Y8.364040;
G1 X-55.175514 Y7.813456;
G1 X-54.808234 Y7.305848;
G1 X-54.402189 Y6.844429;
G1 X-53.956184 Y6.432411;
G1 X-53.469024 Y6.073008;
G1 X-52.939516 Y5.769434;
G1 X-52.366463 Y5.524901;
G1 X-51.748673 Y5.342623;
G1 X-51.147218 Y5.233642;
G1 X-50.554625 Y5.183030;
G1 X-48.849475 Y5.148734;
G1 X-47.437515 Y5.190486;
G1 X-46.149786 Y5.298530;
G1 X-44.974283 Y5.465577;
G1 X-43.900569 Y5.682510;
G1 X-42.821063 Y5.968721;
G1 X-41.833888 Y6.294980;
G1 X-40.840464 Y6.689649;
G1 X-39.840094 Y7.158041;
G1 X-38.924054 Y7.652294;
G1 X-38.001174 Y8.215856;
G1 X-37.070932 Y8.852717;
G1 X-36.132804 Y9.566868;
G1 X-35.272676 Y10.286524;
G1 X-34.405206 Y11.076353;
G1 X-33.529999 Y11.939353;
G1 X-32.646663 Y12.878523;
G1 X-31.836245 Y13.800934;
G1 X-31.018489 Y14.791027;
G1 X-30.193097 Y15.851053;
G1 X-29.359776 Y16.983265;
G1 X-28.518230 Y18.189917;
G1 X-27.668164 Y19.473261;
G1 X-26.887734 Y20.708384;
G1 X-26.099796 Y22.010442;
G1 X-25.304128 Y23.381130;
G1 X-24.500508 Y24.822139;
G1 X-23.688715 Y26.335161;
G1 X-22.868526 Y27.921890;
G1 X-22.039720 Y29.584018;
G1 X-21.202074 Y31.323237;
G1 X-20.432720 Y32.972667;
G1 X-19.655710 Y34.688479;
G1 X-18.870879 Y36.471945;
G1 X-18.078058 Y38.324337;
G1 X-17.277081 Y40.246926;
G1 X-16.467782 Y42.240984;
G1 X-15.649993 Y44.307782;
G1 X-14.823548 Y46.448593;
G1 X-13.988281 Y48.664687;
G1 X-13.144024 Y50.957336;
G1 X-12.768060 Y51.995120;
G1 X-11.785041 Y54.775276;
G1 X-10.858228 Y57.502860;
G1 X-9.986064 Y60.177474;
G1 X-9.166990 Y62.798715;
G1 X-8.399447 Y65.366183;
G1 X-7.681877 Y67.879477;
G1 X-7.012721 Y70.338198;
G1 X-6.390420 Y72.741943;
G1 X-5.813416 Y75.090312;
G1 X-5.280151 Y77.382905;
G1 X-4.789066 Y79.619321;
G1 X-4.338602 Y81.799158;
G1 X-3.927200 Y83.922017;
G1 X-3.553303 Y85.987497;
G1 X-3.215351 Y87.995197;
G1 X-2.911785 Y89.944715;
G1 X-2.641049 Y91.835652;
G1 X-2.401582 Y93.667607;
G1 X-2.191826 Y95.440179;
G1 X-2.010222 Y97.152968;
G1 X-1.855213 Y98.805571;
G1 X-1.725239 Y100.397590;
G1 X-1.618742 Y101.928623;
G1 X-1.534163 Y103.398269;
G1 X-1.469944 Y104.806128;
G1 X-1.424526 Y106.151799;
G1 X-1.396351 Y107.434881;
G1 X-1.383859 Y108.654974;
G1 X-1.385493 Y109.811676;
G1 X-1.399694 Y110.904588;
G1 X-1.424903 Y111.933308;
G1 X-1.459561 Y112.897436;
G1 X-1.502111 Y113.796571;
G1 X-1.550993 Y114.630311;
G1 X-1.604649 Y115.398258;
G1 X-1.661520 Y116.100009;
G1 X-1.720048 Y116.735164;
G1 X-1.778674 Y117.303323;
G1 X-1.835840 Y117.804084;
G1 X-1.889987 Y118.237047;
G1 X-1.939556 Y118.601812;
G1 X-1.982989 Y118.897977;
G1 X-2.018727 Y119.125141;
G1 X-2.045212 Y119.282905;
G1 X-2.060885 Y119.370867;
G1 X-2.064607 Y119.390790;
G1 X-2.931085 Y121.599823;
G1 X-3.860048 Y123.763368;
G1 X-4.847676 Y125.879095;
G1 X-5.890151 Y127.944669;
G1 X-6.983654 Y129.957760;
G1 X-8.124366 Y131.916034;
G1 X-9.308468 Y133.817159;
G1 X-10.532141 Y135.658803;
G1 X-11.791566 Y137.438634;
G1 X-13.082923 Y139.154319;
G1 X-14.402395 Y140.803525;
G1 X-15.746163 Y142.383921;
G1 X-17.110406 Y143.893174;
G1 X-18.491307 Y145.328951;
G1 X-19.885046 Y146.688921;
G1 X-21.287805 Y147.970750;
G1 X-22.567653 Y149.066280;
G1 X-23.848930 Y150.093550;
G1 X-25.128766 Y151.050811;
G1 X-26.404293 Y151.936307;
G1 X-27.672640 Y152.748289;
G1 X-28.930939 Y153.485002;
G1 X-30.176321 Y154.144695;
G1 X-31.294863 Y154.676106;
G1 X-32.398202 Y155.141099;
G1 X-33.484182 Y155.538358;
G1 X-34.550649 Y155.866565;
G1 X-35.595446 Y156.124406;
G1 X-36.616418 Y156.310562;
G1 X-37.611409 Y156.423717;
G1 X-38.491586 Y156.462130;
G1 X-39.346891 Y156.438134;
G1 X-40.175702 Y156.350742;
G1 X-40.976402 Y156.198962;
G1 X-41.747369 Y155.981807;
G1 X-42.486985 Y155.698287;
G1 X-43.193630 Y155.347412;
G1 X-43.865684 Y154.928195;
G1 X-44.501528 Y154.439645;
G1 X-45.046782 Y153.934512;
G1 X-45.559556 Y153.370519;
G1 X-46.038631 Y152.746922;
G1 X-46.482791 Y152.062979;
G1 X-46.890820 Y151.317946;
G1 X-47.261500 Y150.511081;
G1 X-47.593615 Y149.641639;
G1 X-47.885947 Y148.708879;
G1 X-48.137280 Y147.712056;
G1 X-48.346398 Y146.650428;
G1 X-48.512082 Y145.523251;
G1 X-48.623991 Y144.441038;
G1 X-48.698085 Y143.303481;
G1 X-48.733450 Y142.110020;
G1 X-48.729172 Y140.860097;
G1 X-48.684337 Y139.553155;
G1 X-48.598030 Y138.188634;
G1 X-48.469337 Y136.765977;
G1 X-48.297344 Y135.284624;
G1 X-48.081137 Y133.744018;
G1 X-47.819801 Y132.143600;
G1 X-47.512423 Y130.482812;
G1 X-47.158087 Y128.761096;
G1 X-46.755881 Y126.977893;
G1 X-46.304888 Y125.132645;
G1 X-45.851792 Y123.400836;
G1 X-45.356934 Y121.616869;
G1 X-44.819629 Y119.780325;
G1 X-44.239189 Y117.890784;
G1 X-43.614927 Y115.947826;
G1 X-42.946157 Y113.951032;
G1 X-42.232192 Y111.899983;
G1 X-41.844439 Y110.816283;
G1 X-41.272808 Y109.317083;
G1 X-40.654062 Y107.758986;
G1 X-39.989902 Y106.144479;
G1 X-39.282031 Y104.476052;
G1 X-38.532149 Y102.756190;
G1 X-37.741958 Y100.987381;
G1 X-36.913161 Y99.172114;
G1 X-36.047457 Y97.312874;
G1 X-35.146549 Y95.412151;
G1 X-34.212139 Y93.472430;
G1 X-33.245928 Y91.496201;
G1 X-32.249617 Y89.485949;
G1 X-31.224908 Y87.444163;
G1 X-30.173503 Y85.373330;
G1 X-29.097103 Y83.275938;
G1 X-27.997409 Y81.154474;
G1 X-26.876124 Y79.011425;
G1 X-25.734949 Y76.849279;
G1 X-24.575585 Y74.670524;
G1 X-23.399734 Y72.477647;
G1 X-22.209097 Y70.273135;
G1 X-21.005376 Y68.059476;
G1 X-19.790273 Y65.839157;
G1 X-18.565489 Y63.614667;
G1 X-17.332726 Y61.388491;
G1 X-15.969501 Y58.940721;
G1 X-14.463883 Y56.253247;
G1 X-12.954829 Y53.575362;
G1 X-11.445352 Y50.911471;
G1 X-9.938467 Y48.265982;
G1 X-8.437190 Y45.643301;
G1 X-6.944533 Y43.047835;
G1 X-5.463512 Y40.483991;
G1 X-3.997140 Y37.956175;
G1 X-2.548433 Y35.468794;
G1 X-1.120405 Y33.026255;
G1 X0.283930 Y30.632965;
G1 X1.661558 Y28.293329;
G1 X3.009464 Y26.011756;
G1 X4.324634 Y23.792651;
G1 X5.604053 Y21.640422;
G1 X6.733602 Y19.745590;
G1 X7.828848 Y17.912980;
G1 X8.887528 Y16.145903;
G1 X9.816327 Y14.599122;
G1 X10.711332 Y13.111723;
G1 X11.570841 Y11.686195;
G1 X12.393154 Y10.325024;
G1 X13.176569 Y9.030699;
G1 X13.853577 Y7.914139;
G1 X14.495754 Y6.856747;
G1 X15.101819 Y5.860393;
G1 X15.670496 Y4.926945;
G1 X16.200506 Y4.058272;
G1 X16.690570 Y3.256243;
G1 X17.100344 Y2.586530;
G1 X17.475087 Y1.974844;
G1 X17.813840 Y1.422588;
G1 X18.115642 Y0.931167;
G1 X18.379533 Y0.501984;
G1 X18.604552 Y0.136444;
G1 X18.789738 Y-0.164049;
G1 X18.934132 Y-0.398091;
G1 X19.029192 Y-0.552010;
G1 X19.089023 Y-0.648796;
G1 X19.112905 Y-0.687394;
G1 X19.113342 Y-0.688100;
G1 X0.349748 Y0.094820;
M5;
G1 F3000.0 X-9.659665 Y43.674190;
M3 S255;
G1 F750.0 X-8.653264 Y43.787841;
G1 X-7.713976 Y43.919792;
G1 X-6.838522 Y44.067902;
G1 X-6.023622 Y44.230031;
G1 X-5.265995 Y44.404039;
G1 X-4.562363 Y44.587783;
G1 X-3.909446 Y44.779125;
G1 X-3.303963 Y44.975922;
G1 X-2.742636 Y45.176035;
G1 X-2.222183 Y45.377323;
G1 X-1.739326 Y45.577645;
G1 X-1.290785 Y45.774860;
G1 X-0.873280 Y45.966828;
G1 X-0.483532 Y46.151407;
G1 X-0.118259 Y46.326458;
G1 X0.225816 Y46.489840;
G1 X0.551975 Y46.639412;
G1 X0.863496 Y46.773032;
G1 X1.163659 Y46.888562;
G1 X1.455745 Y46.983859;
G1 X1.743033 Y47.056784;
G1 X2.028803 Y47.105195;
G1 X2.316334 Y47.126952;
G1 X2.608906 Y47.119914;
G1 X2.909800 Y47.081941;
G1 X3.222294 Y47.010892;
G1 X3.549668 Y46.904626;
G1 X3.895203 Y46.761002;
G1 X4.262178 Y46.577880;
G1 X4.653872 Y46.353119;
G1 X5.073566 Y46.084579;
G1 X5.524540 Y45.770118;
G1 X6.010072 Y45.407596;
G1 X6.533443 Y44.994873;
G1 X7.097933 Y44.529808;
G1 X7.706820 Y44.010259;
G1 X8.363386 Y43.434087;
G1 X9.070910 Y42.799151;
G1 X9.761092 Y42.169141;
G1 X10.498564 Y41.487188;
G1 X11.285787 Y40.751683;
G1 X12.083975 Y40.000000;
G1 X13.119781 Y39.048776;
G1 X14.136785 Y38.168263;
G1 X15.134836 Y37.355850;
G1 X16.113784 Y36.608926;
G1 X17.073479 Y35.924881;
G1 X18.013768 Y35.301104;
G1 X18.934501 Y34.734984;
G1 X19.835529 Y34.223910;
G1 X20.716699 Y33.765272;
G1 X21.577861 Y33.356459;
G1 X22.418864 Y32.994860;
G1 X23.239557 Y32.677864;
G1 X24.039790 Y32.402860;
G1 X24.819412 Y32.167238;
G1 X25.578272 Y31.968388;
G1 X26.316219 Y31.803697;
G1 X27.033103 Y31.670556;
G1 X27.728772 Y31.566354;
G1 X28.403076 Y31.488479;
G1 X29.055865 Y31.434322;
G1 X29.686986 Y31.401272;
G1 X30.296290 Y31.386717;
G1 X30.883626 Y31.388046;
G1 X31.448842 Y31.402650;
G1 X31.991789 Y31.427918;
G1 X32.512315 Y31.461238;
G1 X33.010270 Y31.500000;
G1 X33.485502 Y31.541593;
G1 X33.937861 Y31.583406;
G1 X34.367197 Y31.622829;
G1 X34.773357 Y31.657251;
G1 X35.156193 Y31.684061;
G1 X35.515552 Y31.700648;
G1 X35.851284 Y31.704401;
G1 X36.163238 Y31.692711;
G1 X36.451264 Y31.662965;
G1 X36.715211 Y31.612554;
G1 X36.911677 Y31.554630;
G1 X37.255172 Y31.428140;
G1 X37.663158 Y31.265197;
G1 X38.128807 Y31.065674;
G1 X38.645289 Y30.829444;
G1 X39.205775 Y30.556380;
G1 X39.803435 Y30.246355;
G1 X40.431441 Y29.899240;
G1 X41.082961 Y29.514910;
G1 X41.751168 Y29.093237;
G1 X42.429232 Y28.634093;
G1 X43.110323 Y28.137352;
G1 X43.787612 Y27.602886;
G1 X44.454269 Y27.030568;
G1 X45.103466 Y26.420271;
G1 X45.728372 Y25.771867;
G1 X46.322159 Y25.085230;
G1 X46.877996 Y24.360232;
G1 X47.389055 Y23.596746;
G1 X47.848507 Y22.794644;
G1 X48.249521 Y21.953801;
G1 X48.585268 Y21.074087;
G1 X48.828110 Y20.240511;
G1 X49.006237 Y19.374610;
G1 X49.114518 Y18.476289;
G1 X49.148028 Y17.631420;
G1 X49.115720 Y16.759608;
G1 X49.013736 Y15.860779;
G1 X48.857320 Y15.020157;
G1 X48.637238 Y14.157096;
G1 X48.372627 Y13.333520;
G1 X48.245615 Y13.052719;
G1 X48.087811 Y12.836331;
G1 X47.901315 Y12.680940;
G1 X47.688230 Y12.583133;
G1 X47.450658 Y12.539495;
G1 X47.190699 Y12.546611;
G1 X46.910456 Y12.601066;
G1 X46.612030 Y12.699445;
G1 X46.297523 Y12.838335;
G1 X45.969036 Y13.014320;
G1 X45.628672 Y13.223986;
G1 X45.278530 Y13.463918;
G1 X44.920714 Y13.730702;
G1 X44.557325 Y14.020922;
G1 X44.190464 Y14.331164;
G1 X43.822233 Y14.658014;
G1 X43.454734 Y14.998056;
G1 X43.090069 Y15.347877;
G1 X42.730338 Y15.704061;
G1 X42.342842 Y16.099138;
G1 X41.966657 Y16.493239;
G1 X41.604581 Y16.881817;
G1 X41.259411 Y17.260329;
G1 X40.933944 Y17.624229;
G1 X40.630978 Y17.968973;
G1 X40.353309 Y18.290016;
G1 X40.103735 Y18.582812;
G1 X39.885053 Y18.842817;
G1 X39.700061 Y19.065486;
G1 X39.551555 Y19.246274;
G1 X39.442333 Y19.380637;
G1 X39.375192 Y19.464028;
G1 X39.352917 Y19.491920;
G1 X39.316663 Y19.496669;
G1 X39.210138 Y19.510839;
G1 X39.036697 Y19.534314;
G1 X38.799698 Y19.566980;
G1 X38.502496 Y19.608720;
G1 X38.148447 Y19.659418;
G1 X37.740907 Y19.718960;
G1 X37.283231 Y19.787230;
G1 X36.778777 Y19.864113;
G1 X36.230900 Y19.949492;
G1 X35.642956 Y20.043253;
G1 X35.018301 Y20.145280;
G1 X34.360291 Y20.255456;
G1 X33.672282 Y20.373668;
G1 X32.957630 Y20.499799;
G1 X32.219692 Y20.633734;
G1 X31.461822 Y20.775358;
G1 X30.687377 Y20.924554;
G1 X29.899714 Y21.081207;
G1 X29.102187 Y21.245202;
G1 X28.298154 Y21.416424;
G1 X27.490970 Y21.594756;
G1 X26.603433 Y21.798997;
G1 X25.720612 Y22.011548;
G1 X24.846972 Y22.232256;
G1 X23.986981 Y22.460967;
G1 X23.145106 Y22.697527;
G1 X22.325813 Y22.941783;
G1 X21.533569 Y23.193580;
G1 X20.772842 Y23.452766;
G1 X20.048097 Y23.719186;
G1 X19.363802 Y23.992686;
G1 X18.724424 Y24.273114;
G1 X18.134429 Y24.560314;
G1 X17.598285 Y24.854134;
G1 X17.120457 Y25.154419;
G1 X16.705414 Y25.461017;
G1 X16.357621 Y25.773772;
G1 X16.081547 Y26.092532;
G1 X15.913245 Y26.355620;
G1 X15.692984 Y26.735480;
G1 X15.420478 Y27.154909;
G1 X15.099302 Y27.610818;
G1 X14.733028 Y28.100117;
G1 X14.325233 Y28.619715;
G1 X13.879490 Y29.166524;
G1 X13.399373 Y29.737453;
G1 X12.888458 Y30.329413;
G1 X12.350317 Y30.939314;
G1 X11.788526 Y31.564067;
G1 X11.206658 Y32.200580;
G1 X10.608289 Y32.845766;
G1 X9.996992 Y33.496534;
G1 X9.376342 Y34.149793;
G1 X8.687090 Y34.867570;
G1 X7.926514 Y35.651381;
G1 X7.169566 Y36.423867;
G1 X6.422577 Y37.179556;
G1 X5.691881 Y37.912972;
G1 X4.983808 Y38.618643;
G1 X4.304692 Y39.291094;
G1 X3.660863 Y39.924853;
G1 X3.058656 Y40.514444;
G1 X2.504400 Y41.054396;
G1 X2.047472 Y41.497578;
G1 X1.640164 Y41.891100;
G1 X1.287234 Y42.230847;
G1 X1.017580 Y42.489585;
G1 X0.800373 Y42.697394;
G1 X0.651431 Y42.839515;
G1 X0.551472 Y42.934672;
G1 X0.503183 Y42.980541;
G1 X0.498935 Y42.984570;
G1 X-9.659665 Y43.674190;
M5;