G90;
M5;
G21;
M5;
G1 F3000.0 X94.197983 Y27.142620;
M3 S255;
G1 F1000.0 X92.494531 Y30.287040;
G1 X90.822453 Y33.365234;
G1 X89.181419 Y36.378015;
G1 X87.571097 Y39.326196;
G1 X85.991158 Y42.210593;
G1 X84.441269 Y45.032019;
G1 X82.921100 Y47.791289;
G1 X81.430320 Y50.489216;
G1 X79.968599 Y53.126614;
G1 X78.535604 Y55.704298;
G1 X77.131005 Y58.223082;
G1 X75.754471 Y60.683779;
G1 X74.405672 Y63.087203;
G1 X73.084276 Y65.434170;
G1 X71.789952 Y67.725492;
G1 X70.522369 Y69.961985;
G1 X69.281196 Y72.144461;
G1 X68.066104 Y74.273735;
G1 X66.876759 Y76.350621;
G1 X65.712832 Y78.375934;
G1 X64.573992 Y80.350487;
G1 X63.459907 Y82.275094;
G1 X62.370247 Y84.150569;
G1 X61.304680 Y85.977726;
G1 X60.262876 Y87.757380;
G1 X59.244504 Y89.490345;
G1 X58.249233 Y91.177434;
G1 X57.276732 Y92.819462;
G1 X56.326669 Y94.417242;
G1 X55.398715 Y95.971590;
G1 X54.492537 Y97.483318;
G1 X53.607806 Y98.953241;
G1 X52.744190 Y100.382173;
G1 X51.901357 Y101.770928;
G1 X51.078978 Y103.120319;
G1 X50.276722 Y104.431163;
G1 X49.494256 Y105.704271;
G1 X48.731251 Y106.940458;
G1 X47.987375 Y108.140539;
G1 X47.262298 Y109.305328;
G1 X46.555688 Y110.435637;
G1 X45.867215 Y111.532282;
G1 X45.196547 Y112.596077;
G1 X44.543354 Y113.627836;
G1 X43.907305 Y114.628372;
G1 X43.288068 Y115.598500;
G1 X42.685313 Y116.539033;
G1 X42.098709 Y117.450787;
G1 X41.527924 Y118.334574;
G1 X40.972629 Y119.191210;
G1 X40.432491 Y120.021507;
G1 X39.907181 Y120.826281;
G1 X39.396366 Y121.606345;
G1 X38.899717 Y122.362513;
G1 X38.416901 Y123.095599;
G1 X37.947589 Y123.806418;
G1 X37.491449 Y124.495784;
G1 X37.048151 Y125.164509;
G1 X36.617362 Y125.813410;
G1 X36.198753 Y126.443299;
G1 X35.791993 Y127.054990;
G1 X35.396750 Y127.649299;
G1 X35.012693 Y128.227038;
G1 X34.639492 Y128.789022;
G1 X34.276815 Y129.336065;
G1 X33.924333 Y129.868981;
G1 X33.581712 Y130.388584;
G1 X33.248624 Y130.895688;
G1 X32.924736 Y131.391107;
G1 X32.609718 Y131.875656;
G1 X32.303239 Y132.350148;
G1 X32.004968 Y132.815397;
G1 X31.714574 Y133.272218;
G1 X31.431726 Y133.721424;
G1 X31.156093 Y134.163830;
G1 X30.887344 Y134.600249;
G1 X30.625148 Y135.031497;
G1 X30.343907 Y135.500866;
G1 X30.069754 Y135.966045;
G1 X29.775847 Y136.474196;
G1 X29.489397 Y136.980031;
G1 X29.182216 Y137.535494;
G1 X28.852989 Y138.147573;
G1 X28.531839 Y138.763248;
G1 X28.217728 Y139.385076;
G1 X27.909617 Y140.015611;
G1 X27.606467 Y140.657407;
G1 X27.307240 Y141.313020;
G1 X27.010897 Y141.985005;
G1 X26.716399 Y142.675916;
G1 X26.422708 Y143.388308;
G1 X26.128785 Y144.124736;
G1 X25.833591 Y144.887756;
G1 X25.536087 Y145.679921;
G1 X25.235236 Y146.503787;
G1 X24.929997 Y147.361909;
G1 X24.619334 Y148.256841;
G1 X24.302206 Y149.191139;
G1 X23.977576 Y150.167357;
G1 X23.644404 Y151.188050;
G1 X23.301652 Y152.255774;
G1 X22.948281 Y153.373082;
G1 X22.583253 Y154.542530;
G1 X22.205528 Y155.766672;
G1 X21.814069 Y157.048065;
G1 X21.407837 Y158.389261;
G1 X21.242503 Y158.937977;
G1 X20.804490 Y160.451159;
G1 X20.414462 Y161.918086;
G1 X20.071435 Y163.339361;
G1 X19.774427 Y164.715585;
G1 X19.522454 Y166.047362;
G1 X19.314534 Y167.335293;
G1 X19.149685 Y168.579980;
G1 X19.026922 Y169.782027;
G1 X18.945264 Y170.942034;
G1 X18.903727 Y172.060605;
G1 X18.901329 Y173.138342;
G1 X18.937087 Y174.175846;
G1 X19.010017 Y175.173721;
G1 X19.119138 Y176.132568;
G1 X19.263466 Y177.052989;
G1 X19.442018 Y177.935588;
G1 X19.653811 Y178.780966;
G1 X19.897863 Y179.589725;
G1 X20.173191 Y180.362467;
G1 X20.478812 Y181.099796;
G1 X20.813743 Y181.802313;
G1 X21.177001 Y182.470620;
G1 X21.567603 Y183.105320;
G1 X21.984567 Y183.707015;
G1 X22.426909 Y184.276307;
G1 X22.893647 Y184.813798;
G1 X23.383798 Y185.320091;
G1 X23.896379 Y185.795788;
G1 X24.430408 Y186.241492;
G1 X24.984900 Y186.657804;
G1 X25.558874 Y187.045326;
G1 X26.151347 Y187.404661;
G1 X26.761335 Y187.736412;
G1 X27.387857 Y188.041180;
G1 X28.029928 Y188.319568;
G1 X28.686567 Y188.572178;
G1 X29.356790 Y188.799612;
G1 X30.039614 Y189.002472;
G1 X30.734057 Y189.181362;
G1 X31.439136 Y189.336882;
G1 X32.153867 Y189.469636;
G1 X32.877269 Y189.580225;
G1 X33.608358 Y189.669251;
G1 X34.346151 Y189.737318;
G1 X35.089666 Y189.785027;
G1 X35.837919 Y189.812981;
G1 X36.589928 Y189.821781;
G1 X37.344710 Y189.812031;
G1 X38.101282 Y189.784331;
G1 X38.858662 Y189.739286;
G1 X39.615865 Y189.677496;
G1 X40.371910 Y189.599564;
G1 X41.125814 Y189.506092;
G1 X41.876593 Y189.397683;
G1 X42.623266 Y189.274939;
G1 X43.364848 Y189.138462;
G1 X44.100358 Y188.988854;
G1 X44.828812 Y188.826717;
G1 X45.549227 Y188.652655;
G1 X46.260621 Y188.467269;
G1 X46.962011 Y188.271161;
G1 X47.652414 Y188.064933;
G1 X48.330847 Y187.849189;
G1 X48.996327 Y187.624529;
G1 X49.647871 Y187.391557;
G1 X50.284497 Y187.150874;
G1 X50.905221 Y186.903084;
G1 X51.509061 Y186.648787;
G1 X52.095035 Y186.388587;
G1 X52.662158 Y186.123085;
G1 X53.209448 Y185.852885;
G1 X53.735923 Y185.578587;
G1 X54.240599 Y185.300795;
G1 X54.573003 Y185.108926;
G1 X55.712936 Y184.410086;
G1 X56.877656 Y183.641347;
G1 X58.063178 Y182.805379;
G1 X59.265519 Y181.904848;
G1 X60.480694 Y180.942422;
G1 X61.704721 Y179.920769;
G1 X62.933615 Y178.842557;
G1 X64.163393 Y177.710453;
G1 X65.390070 Y176.527126;
G1 X66.609663 Y175.295243;
G1 X67.818188 Y174.017471;
G1 X69.011661 Y172.696479;
G1 X70.186099 Y171.334934;
G1 X71.337517 Y169.935504;
G1 X72.461932 Y168.500858;
G1 X73.555361 Y167.033661;
G1 X74.613818 Y165.536583;
G1 X75.633321 Y164.012291;
G1 X76.609886 Y162.463452;
G1 X77.539529 Y160.892736;
G1 X78.418265 Y159.302808;
G1 X79.242112 Y157.696338;
G1 X80.007086 Y156.075992;
G1 X80.709202 Y154.444439;
G1 X81.344477 Y152.804346;
G1 X81.908927 Y151.158381;
G1 X82.398568 Y149.509212;
G1 X82.775428 Y148.009432;
G1 X83.084177 Y146.511213;
G1 X83.321822 Y145.016559;
G1 X83.485369 Y143.527474;
G1 X83.552323 Y142.527405;
G1 X83.619997 Y140.709521;
G1 X83.648294 Y138.841873;
G1 X83.639502 Y136.930816;
G1 X83.595910 Y134.982705;
G1 X83.519807 Y133.003895;
G1 X83.413481 Y131.000743;
G1 X83.279221 Y128.979604;
G1 X83.119317 Y126.946832;
G1 X82.936056 Y124.908783;
G1 X82.731728 Y122.871813;
G1 X82.508622 Y120.842277;
G1 X82.269025 Y118.826531;
G1 X82.015227 Y116.830929;
G1 X81.749517 Y114.861828;
G1 X81.474183 Y112.925582;
G1 X81.191514 Y111.028547;
G1 X80.903799 Y109.177078;
G1 X80.613326 Y107.377531;
G1 X80.322385 Y105.636261;
G1 X80.033264 Y103.959624;
G1 X79.748251 Y102.353974;
G1 X79.494641 Y100.961241;
G1 X79.248037 Y99.637204;
G1 X79.010160 Y98.386636;
G1 X78.802927 Y97.317528;
G1 X78.605619 Y96.316674;
G1 X78.419528 Y95.387659;
G1 X78.245946 Y94.534071;
G1 X78.100086 Y93.826555;
G1 X77.988273 Y93.290330;
G1 X77.880155 Y92.794194;
G1 X77.750359 Y92.233887;
G1 X77.599474 Y91.611904;
G1 X77.428089 Y90.930737;
G1 X77.236796 Y90.192882;
G1 X77.026183 Y89.400832;
G1 X76.796841 Y88.557082;
G1 X76.549360 Y87.664125;
G1 X76.284328 Y86.724457;
G1 X76.002337 Y85.740569;
G1 X75.703976 Y84.714958;
G1 X75.389834 Y83.650117;
G1 X75.060502 Y82.548540;
G1 X74.716570 Y81.412722;
G1 X74.358627 Y80.245155;
G1 X73.987263 Y79.048335;
G1 X73.603068 Y77.824756;
G1 X73.206632 Y76.576911;
G1 X72.798545 Y75.307295;
G1 X72.379396 Y74.018402;
G1 X71.949776 Y72.712726;
G1 X71.510274 Y71.392761;
G1 X71.061480 Y70.061001;
G1 X70.603985 Y68.719941;
G1 X70.138377 Y67.372074;
G1 X69.665246 Y66.019894;
G1 X69.136818 Y64.530492;
G1 X68.600787 Y63.042210;
G1 X68.003309 Y61.410354;
G1 X67.398625 Y59.788288;
G1 X66.787781 Y58.180430;
G1 X66.171822 Y56.591199;
G1 X65.551793 Y55.025012;
G1 X64.928738 Y53.486290;
G1 X64.303704 Y51.979449;
G1 X63.677734 Y50.508909;
G1 X63.051873 Y49.079087;
G1 X62.427168 Y47.694403;
G1 X61.804661 Y46.359275;
G1 X61.185400 Y45.078121;
G1 X60.570427 Y43.855360;
G1 X59.960790 Y42.695410;
G1 X59.357531 Y41.602690;
G1 X58.761697 Y40.581618;
G1 X58.174332 Y39.636612;
G1 X57.648592 Y38.847242;
G1 X57.432413 Y38.539280;
G1 X56.771541 Y37.682038;
G1 X56.044877 Y36.866486;
G1 X55.256433 Y36.092706;
G1 X54.410224 Y35.360778;
G1 X53.510264 Y34.670782;
G1 X52.560568 Y34.022800;
G1 X51.565148 Y33.416911;
G1 X50.528019 Y32.853197;
G1 X49.453195 Y32.331738;
G1 X48.344690 Y31.852614;
G1 X47.206518 Y31.415907;
G1 X46.042693 Y31.021696;
G1 X44.857229 Y30.670063;
G1 X43.654139 Y30.361087;
G1 X42.437439 Y30.094851;
G1 X41.211141 Y29.871433;
G1 X39.979261 Y29.690915;
G1 X38.745811 Y29.553377;
G1 X37.514806 Y29.458901;
G1 X36.290260 Y29.407566;
G1 X35.076186 Y29.399453;
G1 X33.876600 Y29.434643;
G1 X32.695514 Y29.513216;
G1 X31.536944 Y29.635253;
G1 X30.404902 Y29.800835;
G1 X29.303402 Y30.010041;
G1 X28.236460 Y30.262954;
G1 X27.208088 Y30.559652;
G1 X26.222301 Y30.900218;
G1 X25.283113 Y31.284731;
G1 X24.394538 Y31.713272;
G1 X23.560589 Y32.185922;
G1 X22.785281 Y32.702761;
G1 X22.072628 Y33.263870;
G1 X21.482509 Y33.812453;
G1 X20.950503 Y34.397750;
G1 X20.479628 Y35.019821;
G1 X20.072898 Y35.678728;
G1 X20.002033 Y35.810150;
G1 X19.644356 Y36.530164;
G1 X19.293236 Y37.318025;
G1 X18.949642 Y38.168859;
G1 X18.614543 Y39.077792;
G1 X18.288906 Y40.039949;
G1 X17.973700 Y41.050457;
G1 X17.669893 Y42.104442;
G1 X17.378452 Y43.197029;
G1 X17.100348 Y44.323345;
G1 X16.836547 Y45.478516;
G1 X16.588017 Y46.657667;
G1 X16.355728 Y47.855924;
G1 X16.140647 Y49.068414;
G1 X15.943743 Y50.290263;
G1 X15.765983 Y51.516596;
G1 X15.608336 Y52.742539;
G1 X15.471771 Y53.963219;
G1 X15.357255 Y55.173761;
G1 X15.265757 Y56.369292;
G1 X15.198244 Y57.544937;
G1 X15.155686 Y58.695822;
G1 X15.139050 Y59.817073;
G1 X15.149305 Y60.903817;
G1 X15.187419 Y61.951178;
G1 X15.254359 Y62.954284;
G1 X15.351095 Y63.908261;
G1 X15.478595 Y64.808233;
G1 X15.637826 Y65.649327;
G1 X15.829757 Y66.426669;
G1 X16.055356 Y67.135386;
G1 X16.290477 Y67.716021;
G1 X16.554951 Y68.232250;
G1 X16.849505 Y68.680411;
G1 X17.174867 Y69.056843;
G1 X17.497996 Y69.333728;
G1 X17.847733 Y69.545554;
G1 X18.224626 Y69.689571;
G1 X18.629220 Y69.763027;
G1 X19.062062 Y69.763171;
G1 X19.480527 Y69.697369;
G1 X19.923200 Y69.566637;
G1 X20.390492 Y69.368909;
G1 X20.882813 Y69.102118;
G1 X21.400574 Y68.764196;
G1 X21.448593 Y68.730110;
G1 X22.270634 Y68.120153;
G1 X23.022438 Y67.517282;
G1 X23.707507 Y66.922175;
G1 X24.329343 Y66.335515;
G1 X24.891448 Y65.757982;
G1 X25.397324 Y65.190257;
G1 X25.850472 Y64.633020;
G1 X26.254395 Y64.086953;
G1 X26.612594 Y63.552736;
G1 X26.928571 Y63.031050;
G1 X27.205829 Y62.522576;
G1 X27.447868 Y62.027994;
G1 X27.658192 Y61.547985;
G1 X27.840302 Y61.083231;
G1 X27.997699 Y60.634412;
G1 X28.133886 Y60.202208;
G1 X28.252365 Y59.787301;
G1 X28.356637 Y59.390372;
G1 X28.450204 Y59.012100;
G1 X28.536569 Y58.653167;
G1 X28.619233 Y58.314254;
G1 X28.701698 Y57.996041;
G1 X28.787466 Y57.699209;
G1 X28.880039 Y57.424440;
G1 X28.982919 Y57.172413;
G1 X29.099607 Y56.943810;
G1 X29.233606 Y56.739311;
G1 X29.388418 Y56.559598;
G1 X29.567544 Y56.405350;
G1 X29.774486 Y56.277249;
G1 X30.012746 Y56.175976;
G1 X30.285827 Y56.102210;
G1 X30.597229 Y56.056634;
G1 X30.950455 Y56.039928;
G1 X31.094173 Y56.041240;
G1 X31.746804 Y56.087500;
G1 X32.435829 Y56.192948;
G1 X33.154424 Y56.351395;
G1 X33.895764 Y56.556649;
G1 X34.653023 Y56.802520;
G1 X35.419376 Y57.082818;
G1 X36.187997 Y57.391353;
G1 X36.952062 Y57.721934;
G1 X37.704746 Y58.068371;
G1 X38.439223 Y58.424473;
G1 X39.148668 Y58.784050;
G1 X39.826255 Y59.140913;
G1 X40.465160 Y59.488869;
G1 X41.058557 Y59.821730;
G1 X41.599622 Y60.133304;
G1 X42.081528 Y60.417402;
G1 X42.497451 Y60.667832;
G1 X42.812561 Y60.861072;
G1 X43.062371 Y61.016722;
G1 X43.228490 Y61.121687;
G1 X43.332552 Y61.188247;
G1 X43.370060 Y61.212490;
G1 X43.370813 Y61.212980;
G1 X33.604163 Y66.894970;
G1 X33.599075 Y66.856388;
G1 X33.583317 Y66.745541;
G1 X33.556150 Y66.569772;
G1 X33.516836 Y66.336428;
G1 X33.464635 Y66.052854;
G1 X33.398807 Y65.726395;
G1 X33.318613 Y65.364397;
G1 X33.223315 Y64.974204;
G1 X33.112173 Y64.563163;
G1 X32.984448 Y64.138618;
G1 X32.839401 Y63.707915;
G1 X32.676291 Y63.278399;
G1 X32.494381 Y62.857416;
G1 X32.292931 Y62.452311;
G1 X32.071202 Y62.070429;
G1 X31.828454 Y61.719116;
G1 X31.563949 Y61.405717;
G1 X31.276947 Y61.137577;
G1 X30.966709 Y60.922042;
G1 X30.632495 Y60.766457;
G1 X30.273567 Y60.678167;
G1 X29.925200 Y60.662481;
G1 X29.555242 Y60.714000;
G1 X29.272813 Y60.796650;
G1 X29.045511 Y60.838940;
G1 X28.812778 Y60.808530;
G1 X28.575808 Y60.708634;
G1 X28.335795 Y60.542464;
G1 X28.093934 Y60.313235;
G1 X27.851420 Y60.024158;
G1 X27.609448 Y59.678448;
G1 X27.369211 Y59.279317;
G1 X27.131904 Y58.829980;
G1 X26.898721 Y58.333648;
G1 X26.670858 Y57.793535;
G1 X26.449509 Y57.212854;
G1 X26.235867 Y56.594819;
G1 X26.031129 Y55.942643;
G1 X25.836487 Y55.259539;
G1 X25.653138 Y54.548719;
G1 X25.482274 Y53.813398;
G1 X25.325092 Y53.056789;
G1 X25.182784 Y52.282104;
G1 X25.056547 Y51.492557;
G1 X24.947574 Y50.691362;
G1 X24.857059 Y49.881730;
G1 X24.786198 Y49.066876;
G1 X24.736184 Y48.250013;
G1 X24.708213 Y47.434353;
G1 X24.703479 Y46.623111;
G1 X24.723176 Y45.819499;
G1 X24.768499 Y45.026730;
G1 X24.840643 Y44.248018;
G1 X24.940801 Y43.486576;
G1 X25.070168 Y42.745617;
G1 X25.229940 Y42.028354;
G1 X25.421310 Y41.338001;
G1 X25.645473 Y40.677770;
G1 X25.903623 Y40.050876;
G1 X26.196955 Y39.460530;
G1 X26.526664 Y38.909946;
G1 X26.893944 Y38.402338;
G1 X27.299989 Y37.940919;
G1 X27.745994 Y37.528901;
G1 X28.233154 Y37.169498;
G1 X28.762662 Y36.865924;
G1 X29.335715 Y36.621391;
G1 X29.953505 Y36.439113;
G1 X30.554960 Y36.330132;
G1 X31.147553 Y36.279520;
G1 X32.846185 Y36.238492;
G1 X34.383092 Y36.271606;
G1 X35.650914 Y36.366720;
G1 X36.803643 Y36.518243;
G1 X37.958255 Y36.741922;
G1 X39.010943 Y37.016188;
G1 X40.067825 Y37.365660;
G1 X41.033322 Y37.754865;
G1 X42.004267 Y38.217923;
G1 X42.892466 Y38.707663;
G1 X43.786655 Y39.267230;
G1 X44.687545 Y39.900811;
G1 X45.512946 Y40.544542;
G1 X46.345002 Y41.256046;
G1 X47.184247 Y42.038467;
G1 X48.031213 Y42.894952;
G1 X48.886432 Y43.828644;
G1 X49.671515 Y44.747099;
G1 X50.464259 Y45.734325;
G1 X51.265066 Y46.792683;
G1 X52.074334 Y47.924538;
G1 X52.892464 Y49.132251;
G1 X53.719857 Y50.418186;
G1 X54.480407 Y51.657084;
G1 X55.249243 Y52.964356;
G1 X56.026666 Y54.341777;
G1 X56.812976 Y55.791123;
G1 X57.608475 Y57.314169;
G1 X58.413463 Y58.912690;
G1 X59.228241 Y60.588462;
G1 X59.977696 Y62.180419;
G1 X60.735716 Y63.839021;
G1 X61.502526 Y65.565602;
G1 X62.278354 Y67.361493;
G1 X63.063425 Y69.228031;
G1 X63.857964 Y71.166548;
G1 X64.662197 Y73.178378;
G1 X65.476351 Y75.264855;
G1 X66.300652 Y77.427313;
G1 X67.135324 Y79.667086;
G1 X67.903308 Y81.771456;
G1 X68.066543 Y82.224030;
G1 X69.063939 Y85.071484;
G1 X69.996214 Y87.886550;
G1 X70.865316 Y90.667847;
G1 X71.673192 Y93.413995;
G1 X72.421789 Y96.123614;
G1 X73.113054 Y98.795323;
G1 X73.748934 Y101.427744;
G1 X74.331376 Y104.019495;
G1 X74.862327 Y106.569196;
G1 X75.343734 Y109.075468;
G1 X75.777545 Y111.536930;
G1 X76.165706 Y113.952203;
G1 X76.510165 Y116.319905;
G1 X76.812868 Y118.638658;
G1 X77.075763 Y120.907080;
G1 X77.300797 Y123.123792;
G1 X77.489917 Y125.287414;
G1 X77.645069 Y127.396565;
G1 X77.768202 Y129.449866;
G1 X77.861261 Y131.445936;
G1 X77.926195 Y133.383395;
G1 X77.964950 Y135.260864;
G1 X77.979473 Y137.076961;
G1 X77.971712 Y138.830307;
G1 X77.943613 Y140.519522;
G1 X77.897123 Y142.143226;
G1 X77.834191 Y143.700038;
G1 X77.756762 Y145.188579;
G1 X77.666783 Y146.607468;
G1 X77.566203 Y147.955325;
G1 X77.456968 Y149.230771;
G1 X77.341024 Y150.432424;
G1 X77.220320 Y151.558905;
G1 X77.096802 Y152.608834;
G1 X76.972417 Y153.580831;
G1 X76.860226 Y154.395676;
G1 X76.750391 Y155.143937;
G1 X76.644374 Y155.824576;
G1 X76.543639 Y156.436557;
G1 X76.449649 Y156.978843;
G1 X76.363865 Y157.450397;
G1 X76.287751 Y157.850183;
G1 X76.222771 Y158.177163;
G1 X76.170386 Y158.430300;
G1 X76.132060 Y158.608557;
G1 X76.109255 Y158.710898;
G1 X76.103163 Y158.737444;
G1 X76.093904 Y158.775399;
G1 X76.064740 Y158.887094;
G1 X76.013587 Y159.069279;
G1 X75.938364 Y159.318702;
G1 X75.836987 Y159.632110;
G1 X75.707375 Y160.006251;
G1 X75.547444 Y160.437875;
G1 X75.355112 Y160.923728;
G1 X75.128296 Y161.460559;
G1 X74.864915 Y162.045116;
G1 X74.562885 Y162.674148;
G1 X74.220124 Y163.344402;
G1 X73.834549 Y164.052626;
G1 X73.404078 Y164.795569;
G1 X72.926628 Y165.569978;
G1 X72.400117 Y166.372603;
G1 X71.822462 Y167.200190;
G1 X71.191581 Y168.049488;
G1 X70.505390 Y168.917245;
G1 X69.761809 Y169.800210;
G1 X68.958753 Y170.695130;
G1 X68.094140 Y171.598754;
G1 X67.165889 Y172.507829;
G1 X66.171916 Y173.419104;
G1 X65.110139 Y174.329327;
G1 X63.978475 Y175.235245;
G1 X62.774841 Y176.133608;
G1 X61.497156 Y177.021163;
G1 X60.143337 Y177.894658;
G1 X58.844772 Y178.673808;
G1 X57.480001 Y179.436207;
G1 X56.808963 Y179.791319;
G1 X55.555754 Y180.428552;
G1 X54.349806 Y181.013463;
G1 X53.190108 Y181.547879;
G1 X52.075647 Y182.033627;
G1 X51.005409 Y182.472535;
G1 X49.978383 Y182.866428;
G1 X48.993554 Y183.217134;
G1 X48.049910 Y183.526480;
G1 X47.146440 Y183.796292;
G1 X46.282128 Y184.028398;
G1 X45.455964 Y184.224623;
G1 X44.666933 Y184.386796;
G1 X43.914024 Y184.516743;
G1 X43.196223 Y184.616290;
G1 X42.512518 Y184.687265;
G1 X41.861895 Y184.731495;
G1 X41.243342 Y184.750806;
G1 X40.655847 Y184.747025;
G1 X40.098395 Y184.721980;
G1 X39.569975 Y184.677496;
G1 X39.069574 Y184.615402;
G1 X38.596179 Y184.537523;
G1 X38.148777 Y184.445686;
G1 X37.726354 Y184.341719;
G1 X37.327900 Y184.227449;
G1 X36.952400 Y184.104701;
G1 X36.598841 Y183.975304;
G1 X36.266212 Y183.841083;
G1 X35.953499 Y183.703867;
G1 X35.659689 Y183.565481;
G1 X35.383769 Y183.427752;
G1 X35.124727 Y183.292508;
G1 X34.881550 Y183.161575;
G1 X34.653225 Y183.036781;
G1 X34.438740 Y182.919951;
G1 X34.237081 Y182.812913;
G1 X34.047235 Y182.717494;
G1 X33.901103 Y182.649834;
G1 X33.619153 Y182.511260;
G1 X33.293730 Y182.317332;
G1 X32.933124 Y182.060409;
G1 X32.545626 Y181.732850;
G1 X32.176997 Y181.367343;
G1 X31.799226 Y180.931404;
G1 X31.418541 Y180.419292;
G1 X31.075178 Y179.882804;
G1 X30.739235 Y179.274305;
G1 X30.415394 Y178.589483;
G1 X30.135432 Y177.897056;
G1 X29.872855 Y177.134747;
G1 X29.631180 Y176.299315;
G1 X29.432572 Y175.473651;
G1 X29.256785 Y174.582442;
G1 X29.106463 Y173.623253;
G1 X28.984245 Y172.593650;
G1 X28.899751 Y171.594495;
G1 X28.842653 Y170.533306;
G1 X28.814935 Y169.408252;
G1 X28.818584 Y168.217505;
G1 X28.855582 Y166.959236;
G1 X28.927917 Y165.631616;
G1 X29.026008 Y164.362967;
G1 X29.156435 Y163.034118;
G1 X29.320686 Y161.643693;
G1 X29.520255 Y160.190318;
G1 X29.756633 Y158.672618;
G1 X30.031310 Y157.089220;
G1 X30.345777 Y155.438750;
G1 X30.667441 Y153.878962;
G1 X31.024343 Y152.261574;
G1 X31.417603 Y150.585553;
G1 X31.848341 Y148.849866;
G1 X32.317679 Y147.053482;
G1 X32.826736 Y145.195367;
G1 X33.376632 Y143.274489;
G1 X33.792563 Y141.871675;
G1 X34.254952 Y140.362253;
G1 X34.752215 Y138.792669;
G1 X35.283074 Y137.165455;
G1 X35.846251 Y135.483140;
G1 X36.440468 Y133.748256;
G1 X37.064449 Y131.963333;
G1 X37.716916 Y130.130903;
G1 X38.396591 Y128.253496;
G1 X39.102197 Y126.333643;
G1 X39.832456 Y124.373875;
G1 X40.586091 Y122.376722;
G1 X41.361825 Y120.344716;
G1 X42.158379 Y118.280386;
G1 X42.974477 Y116.186265;
G1 X43.808841 Y114.064882;
G1 X44.660193 Y111.918770;
G1 X45.527256 Y109.750457;
G1 X46.408752 Y107.562476;
G1 X47.303405 Y105.357356;
G1 X48.209936 Y103.137630;
G1 X49.127068 Y100.905827;
G1 X50.053524 Y98.664479;
G1 X50.988025 Y96.416115;
G1 X51.929295 Y94.163268;
G1 X52.970985 Y91.682978;
G1 X54.122489 Y88.955949;
G1 X55.393351 Y85.962974;
G1 X56.665701 Y82.982862;
G1 X57.936526 Y80.021583;
G1 X59.202815 Y77.085102;
G1 X60.461554 Y74.179388;
G1 X61.709731 Y71.310409;
G1 X62.944336 Y68.484131;
G1 X64.162354 Y65.706523;
G1 X65.360774 Y62.983551;
G1 X66.536583 Y60.321184;
G1 X67.686771 Y57.725389;
G1 X68.707626 Y55.428365;
G1 X69.702553 Y53.195775;
G1 X70.669288 Y51.032101;
G1 X71.521771 Y49.128702;
G1 X72.347384 Y47.289333;
G1 X73.144427 Y45.517362;
G1 X73.911200 Y43.816158;
G1 X74.580568 Y42.333852;
G1 X75.222236 Y40.915347;
G1 X75.834928 Y39.563172;
G1 X76.417366 Y38.279858;
G1 X76.968271 Y37.067936;
G1 X77.440658 Y36.030271;
G1 X77.884969 Y35.055601;
G1 X78.300245 Y34.145826;
G1 X78.685527 Y33.302850;
G1 X79.039855 Y32.528572;
G1 X79.362268 Y31.824895;
G1 X79.626869 Y31.248054;
G1 X79.863581 Y30.732560;
G1 X80.071682 Y30.279842;
G1 X80.250451 Y29.891329;
G1 X80.399168 Y29.568449;
G1 X80.517110 Y29.312631;
G1 X80.603557 Y29.125304;
G1 X80.657788 Y29.007895;
G1 X80.679081 Y28.961834;
G1 X80.679393 Y28.961160;
G1 X94.197983 Y27.142620;
M5;
G1 F3000.0 X72.042513 Y74.770680;
M3 S255;
G1 F1000.0 X73.048914 Y74.884331;
G1 X73.988202 Y75.016282;
G1 X74.863656 Y75.164392;
G1 X75.678556 Y75.326521;
G1 X76.436182 Y75.500529;
G1 X77.139814 Y75.684273;
G1 X77.792732 Y75.875615;
G1 X78.398215 Y76.072412;
G1 X78.959542 Y76.272525;
G1 X79.479995 Y76.473813;
G1 X79.962851 Y76.674135;
G1 X80.411392 Y76.871350;
G1 X80.828898 Y77.063318;
G1 X81.218646 Y77.247897;
G1 X81.583919 Y77.422948;
G1 X81.927994 Y77.586330;
G1 X82.254152 Y77.735902;
G1 X82.565674 Y77.869522;
G1 X82.865837 Y77.985052;
G1 X83.157923 Y78.080349;
G1 X83.445211 Y78.153274;
G1 X83.730981 Y78.201685;
G1 X84.018512 Y78.223442;
G1 X84.311084 Y78.216404;
G1 X84.611977 Y78.178431;
G1 X84.924471 Y78.107382;
G1 X85.251846 Y78.001116;
G1 X85.597381 Y77.857492;
G1 X85.964356 Y77.674370;
G1 X86.356050 Y77.449609;
G1 X86.775744 Y77.181069;
G1 X87.226718 Y76.866608;
G1 X87.712250 Y76.504086;
G1 X88.235621 Y76.091363;
G1 X88.800111 Y75.626298;
G1 X89.408998 Y75.106749;
G1 X90.065564 Y74.530577;
G1 X90.773088 Y73.895641;
G1 X91.463270 Y73.265631;
G1 X92.200742 Y72.583678;
G1 X92.987965 Y71.848173;
G1 X93.786153 Y71.096490;
G1 X95.015357 Y69.918932;
G1 X96.175409 Y68.775910;
G1 X97.268884 Y67.667462;
G1 X98.298358 Y66.593625;
G1 X99.266408 Y65.554438;
G1 X100.175609 Y64.549936;
G1 X101.028537 Y63.580159;
G1 X101.827768 Y62.645142;
G1 X102.575878 Y61.744924;
G1 X103.275443 Y60.879542;
G1 X103.929038 Y60.049034;
G1 X104.539240 Y59.253436;
G1 X105.108625 Y58.492787;
G1 X105.639767 Y57.767123;
G1 X106.135244 Y57.076483;
G1 X106.597631 Y56.420903;
G1 X107.029504 Y55.800421;
G1 X107.433439 Y55.215075;
G1 X107.812011 Y54.664901;
G1 X108.167797 Y54.149938;
G1 X108.503373 Y53.670223;
G1 X108.821314 Y53.225792;
G1 X109.124197 Y52.816685;
G1 X109.414596 Y52.442937;
G1 X109.695089 Y52.104587;
G1 X109.968251 Y51.801672;
G1 X110.236658 Y51.534229;
G1 X110.502885 Y51.302296;
G1 X110.769509 Y51.105910;
G1 X111.039106 Y50.945109;
G1 X111.314251 Y50.819930;
G1 X111.384050 Y50.794260;
G1 X111.727872 Y50.684071;
G1 X112.138155 Y50.570739;
G1 X112.610035 Y50.455197;
G1 X113.138651 Y50.338375;
G1 X113.719142 Y50.221208;
G1 X114.346646 Y50.104626;
G1 X115.016301 Y49.989564;
G1 X115.723246 Y49.876951;
G1 X116.462618 Y49.767722;
G1 X117.229557 Y49.662809;
G1 X118.019200 Y49.563143;
G1 X118.826686 Y49.469657;
G1 X119.647153 Y49.383284;
G1 X120.475740 Y49.304956;
G1 X121.307584 Y49.235604;
G1 X122.137824 Y49.176162;
G1 X122.961599 Y49.127562;
G1 X123.774046 Y49.090736;
G1 X124.570304 Y49.066616;
G1 X125.345512 Y49.056135;
G1 X126.094807 Y49.060225;
G1 X126.813328 Y49.079819;
G1 X127.496213 Y49.115848;
G1 X128.138601 Y49.169245;
G1 X128.735629 Y49.240943;
G1 X129.282437 Y49.331873;
G1 X129.774162 Y49.442969;
G1 X130.205943 Y49.575161;
G1 X130.363990 Y49.635460;
G1 X130.636680 Y49.773632;
G1 X130.840198 Y49.935562;
G1 X130.978263 Y50.119557;
G1 X131.054594 Y50.323922;
G1 X131.072909 Y50.546965;
G1 X131.036927 Y50.786992;
G1 X130.950368 Y51.042308;
G1 X130.816949 Y51.311221;
G1 X130.640391 Y51.592036;
G1 X130.424410 Y51.883060;
G1 X130.172727 Y52.182599;
G1 X129.889059 Y52.488959;
G1 X129.577127 Y52.800448;
G1 X129.240648 Y53.115370;
G1 X128.883341 Y53.432033;
G1 X128.508926 Y53.748743;
G1 X128.121121 Y54.063806;
G1 X127.723644 Y54.375528;
G1 X127.320214 Y54.682216;
G1 X126.874005 Y55.011737;
G1 X126.430043 Y55.330863;
G1 X125.993278 Y55.637340;
G1 X125.568659 Y55.928913;
G1 X125.161135 Y56.203328;
G1 X124.775658 Y56.458330;
G1 X124.417176 Y56.691667;
G1 X124.090639 Y56.901082;
G1 X123.800997 Y57.084323;
G1 X123.553199 Y57.239134;
G1 X123.352196 Y57.363261;
G1 X123.202936 Y57.454451;
G1 X123.110371 Y57.510448;
G1 X123.079430 Y57.529010;
G1 X123.046567 Y57.523134;
G1 X122.949828 Y57.506029;
G1 X122.791987 Y57.478476;
G1 X122.575821 Y57.441260;
G1 X122.304104 Y57.395162;
G1 X121.979611 Y57.340966;
G1 X121.605117 Y57.279454;
G1 X121.183398 Y57.211410;
G1 X120.717227 Y57.137616;
G1 X120.209381 Y57.058855;
G1 X119.662635 Y56.975910;
G1 X119.079763 Y56.889564;
G1 X118.463540 Y56.800599;
G1 X117.816743 Y56.709799;
G1 X117.142144 Y56.617947;
G1 X116.442521 Y56.525824;
G1 X115.720647 Y56.434215;
G1 X114.979299 Y56.343901;
G1 X114.221250 Y56.255666;
G1 X113.449276 Y56.170293;
G1 X112.666152 Y56.088565;
G1 X111.874653 Y56.011264;
G1 X111.077555 Y55.939172;
G1 X110.197591 Y55.866824;
G1 X109.230091 Y55.796861;
G1 X108.267840 Y55.738319;
G1 X107.315756 Y55.692587;
G1 X106.378754 Y55.661050;
G1 X105.461750 Y55.645096;
G1 X104.569660 Y55.646111;
G1 X103.707401 Y55.665483;
G1 X102.879889 Y55.704599;
G1 X102.092040 Y55.764844;
G1 X101.348770 Y55.847607;
G1 X100.654995 Y55.954274;
G1 X100.015633 Y56.086231;
G1 X99.435597 Y56.244866;
G1 X98.919806 Y56.431566;
G1 X98.473175 Y56.647718;
G1 X98.131299 Y56.870943;
G1 X97.854337 Y57.120697;
G1 X97.645982 Y57.398020;
G1 X97.615423 Y57.452110;
G1 X97.395162 Y57.831970;
G1 X97.122656 Y58.251399;
G1 X96.801480 Y58.707308;
G1 X96.435206 Y59.196607;
G1 X96.027411 Y59.716205;
G1 X95.581668 Y60.263014;
G1 X95.101551 Y60.833943;
G1 X94.590636 Y61.425903;
G1 X94.052495 Y62.035804;
G1 X93.490704 Y62.660557;
G1 X92.908836 Y63.297070;
G1 X92.310467 Y63.942256;
G1 X91.699170 Y64.593024;
G1 X91.078520 Y65.246283;
G1 X90.389268 Y65.964060;
G1 X89.628692 Y66.747871;
G1 X88.871744 Y67.520357;
G1 X88.124755 Y68.276046;
G1 X87.394058 Y69.009462;
G1 X86.685986 Y69.715133;
G1 X86.006869 Y70.387584;
G1 X85.363041 Y71.021343;
G1 X84.760833 Y71.610934;
G1 X84.206578 Y72.150886;
G1 X83.749650 Y72.594068;
G1 X83.342342 Y72.987590;
G1 X82.989412 Y73.327337;
G1 X82.719758 Y73.586075;
G1 X82.502550 Y73.793884;
G1 X82.353608 Y73.936005;
G1 X82.253650 Y74.031162;
G1 X82.205361 Y74.077031;
G1 X82.201113 Y74.081060;
G1 X72.042513 Y74.770680;
M5;
G1 F3000.0 X64.979932 Y64.300290;
M3 S255;
G1 F1000.0 X63.055194 Y68.691660;
G1 X64.687427 Y72.840660;
G1 X66.319663 Y76.989660;
G1 X68.479031 Y73.200030;
G1 X70.638399 Y69.410400;
G1 X69.313757 Y65.599530;
G1 X69.057644 Y64.863494;
G1 X68.823510 Y64.192490;
G1 X68.610215 Y63.583602;
G1 X68.416617 Y63.033914;
G1 X68.241574 Y62.540511;
G1 X68.083947 Y62.100477;
G1 X67.942592 Y61.710896;
G1 X67.816370 Y61.368851;
G1 X67.704139 Y61.071427;
G1 X67.604759 Y60.815709;
G1 X67.517086 Y60.598780;
G1 X67.439982 Y60.417725;
G1 X67.372304 Y60.269628;
G1 X67.312911 Y60.151572;
G1 X67.260662 Y60.060643;
G1 X67.214416 Y59.993923;
G1 X67.173032 Y59.948498;
G1 X67.135368 Y59.921451;
G1 X67.100283 Y59.909867;
G1 X67.086600 Y59.908910;
G1 X67.049782 Y59.942003;
G1 X66.985899 Y60.038641;
G1 X66.896850 Y60.194863;
G1 X66.784536 Y60.406706;
G1 X66.650858 Y60.670208;
G1 X66.497716 Y60.981409;
G1 X66.327011 Y61.336345;
G1 X66.140644 Y61.731056;
G1 X65.940514 Y62.161579;
G1 X65.728523 Y62.623952;
G1 X65.506572 Y63.114214;
G1 X65.276560 Y63.628403;
G1 X65.040389 Y64.162557;
G1 X64.979932 Y64.300290;
G1 X64.979932 Y64.300290;
M5;